{"type": "FeatureCollection", "features": [{"type": "Feature", "geometry": {"type": "Polygon", "coordinates": [[[-71.13957885715321, -29.955447028629077], [-71.14771615461716, -29.965905574068813], [-71.14148616250426, -29.976345403597797], [-71.12711923374415, -29.97632639971291], [-71.11898362534878, -29.965868426454406], [-71.12521325619713, -29.955428884975653], [-71.13957885715321, -29.955447028629077]]]}, "properties": {"h3_id": "87b21901cffffff", "res": 7, "alerta": "AMARILLO", "pct_rojo": 0.0, "horas_br": 1, "p_ign": 0.283}}, {"type": "Feature", "geometry": {"type": "Polygon", "coordinates": [[[-71.17695259903753, -29.89275784334578], [-71.18509161448637, -29.903221905276265], [-71.17886290671412, -29.91367450170357], [-71.16449554088993, -29.913662747028653], [-71.15635821052068, -29.903199255855924], [-71.16258656044786, -29.892746948676493], [-71.17695259903753, -29.89275784334578]]]}, "properties": {"h3_id": "87b219032ffffff", "res": 7, "alerta": "AMARILLO", "pct_rojo": 0.0, "horas_br": 1, "p_ign": 0.224}}, {"type": "Feature", "geometry": {"type": "Polygon", "coordinates": [[[-71.15254223002734, -29.861358065889352], [-71.16067790670807, -29.871825922514155], [-71.1544500569958, -29.882281273659654], [-71.14008689003727, -29.882268477605976], [-71.13195290012206, -29.871801192804465], [-71.13818038995227, -29.86134613230947], [-71.15254223002734, -29.861358065889352]]]}, "properties": {"h3_id": "87b219034ffffff", "res": 7, "alerta": "AMARILLO", "pct_rojo": 0.0, "horas_br": 1, "p_ign": 0.283}}, {"type": "Feature", "geometry": {"type": "Polygon", "coordinates": [[[-70.9916540779822, -29.986510963518473], [-70.99977785975248, -29.996969858679115], [-70.99354792919885, -30.007392412941943], [-70.97919459062018, -30.0073557823184], [-70.97107251089433, -29.99689746539944], [-70.97730206725734, -29.986475200938322], [-70.9916540779822, -29.986510963518473]]]}, "properties": {"h3_id": "87b219046ffffff", "res": 7, "alerta": "AMARILLO", "pct_rojo": 0.0, "horas_br": 1, "p_ign": 0.4}}, {"type": "Feature", "geometry": {"type": "Polygon", "coordinates": [[[-71.26701651853703, -29.934628893089805], [-71.2751655664987, -29.945086469687404], [-71.26893544666066, -29.95554021576325], [-71.25455662852683, -29.955536099007055], [-71.24640925845927, -29.94507908936878], [-71.2526390281815, -29.934625629603524], [-71.26701651853703, -29.934628893089805]]]}, "properties": {"h3_id": "87b2190a6ffffff", "res": 7, "alerta": "AMARILLO", "pct_rojo": 0.0, "horas_br": 1, "p_ign": 0.229}}, {"type": "Feature", "geometry": {"type": "Polygon", "coordinates": [[[-71.24257604156702, -29.903248526449996], [-71.25072175596902, -29.9137099203357], [-71.24449248601962, -29.924166426727485], [-71.23011785338097, -29.924161251601625], [-71.2219738185736, -29.913700425742977], [-71.22820273636088, -29.90324420705932], [-71.24257604156702, -29.903248526449996]]]}, "properties": {"h3_id": "87b21918affffff", "res": 7, "alerta": "AMARILLO", "pct_rojo": 0.0, "horas_br": 1, "p_ign": 0.243}}, {"type": "Feature", "geometry": {"type": "Polygon", "coordinates": [[[-71.24065992502156, -29.88232539221699], [-71.24880481180946, -29.89278897488064], [-71.24257604156702, -29.903248526449996], [-71.22820273636088, -29.90324420705932], [-71.22005952906723, -29.892781192539385], [-71.22628794703624, -29.882321929342606], [-71.24065992502156, -29.88232539221699]]]}, "properties": {"h3_id": "87b21918effffff", "res": 7, "alerta": "AMARILLO", "pct_rojo": 0.0, "horas_br": 1, "p_ign": 0.322}}, {"type": "Feature", "geometry": {"type": "Polygon", "coordinates": [[[-70.89835122772224, -30.381833787651686], [-70.90647799573924, -30.392253988862805], [-70.9002392715445, -30.402607391033957], [-70.8858741623028, -30.402540312462385], [-70.87774910934515, -30.392120692170085], [-70.88398745012412, -30.381767569606158], [-70.89835122772224, -30.381833787651686]]]}, "properties": {"h3_id": "87b2192d1ffffff", "res": 7, "alerta": "AMARILLO", "pct_rojo": 0.0, "horas_br": 1, "p_ign": 0.4}}, {"type": "Feature", "geometry": {"type": "Polygon", "coordinates": [[[-71.17970096089864, -30.393207494916982], [-71.18785566135168, -30.40361958028083], [-71.18161514153901, -30.413995053254443], [-71.1672202797856, -30.41395816654393], [-71.15906727056702, -30.403546650448693], [-71.16530743141662, -30.393171451871137], [-71.17970096089864, -30.393207494916982]]]}, "properties": {"h3_id": "87b21965cffffff", "res": 7, "alerta": "AMARILLO", "pct_rojo": 0.0, "horas_br": 1, "p_ign": 0.4}}, {"type": "Feature", "geometry": {"type": "Polygon", "coordinates": [[[-70.53936442457642, -29.974212265830513], [-70.5474430192743, -29.98468270347572], [-70.54121630567897, -29.995068568037766], [-70.52691141009689, -29.994983696952787], [-70.51883455514958, -29.984513856437317], [-70.52506085559659, -29.974128289952876], [-70.53936442457642, -29.974212265830513]]]}, "properties": {"h3_id": "87b219a58ffffff", "res": 7, "alerta": "AMARILLO", "pct_rojo": 0.0, "horas_br": 1, "p_ign": 0.21}}, {"type": "Feature", "geometry": {"type": "Polygon", "coordinates": [[[-70.84130147422448, -28.54391174212412], [-70.84936690313235, -28.554515270458317], [-70.84317131563871, -28.565141543813738], [-70.82891068184999, -28.565163949985827], [-70.82084694930326, -28.55456100564157], [-70.82704215374848, -28.543935071211354], [-70.84130147422448, -28.54391174212412]]]}, "properties": {"h3_id": "87b21d803ffffff", "res": 7, "alerta": "AMARILLO", "pct_rojo": 0.0, "horas_br": 1, "p_ign": 0.348}}, {"type": "Feature", "geometry": {"type": "Polygon", "coordinates": [[[-70.80039389562342, -28.565204284682597], [-70.80845592997674, -28.57580664414096], [-70.8022601153652, -28.586426347200362], [-70.78800265256771, -28.586443351844352], [-70.77994231823835, -28.57584157816749], [-70.78613774624749, -28.565222214141183], [-70.80039389562342, -28.565204284682597]]]}, "properties": {"h3_id": "87b21d808ffffff", "res": 7, "alerta": "AMARILLO", "pct_rojo": 0.0, "horas_br": 1, "p_ign": 0.408}}, {"type": "Feature", "geometry": {"type": "Polygon", "coordinates": [[[-70.77994231823835, -28.57584157816749], [-70.78800265256771, -28.586443351844352], [-70.78180672681455, -28.597059768277276], [-70.76755085467572, -28.5970740720244], [-70.75949222219916, -28.586472885024364], [-70.76568775957395, -28.575856807676413], [-70.77994231823835, -28.57584157816749]]]}, "properties": {"h3_id": "87b21d809ffffff", "res": 7, "alerta": "AMARILLO", "pct_rojo": 0.0, "horas_br": 1, "p_ign": 0.408}}, {"type": "Feature", "geometry": {"type": "Polygon", "coordinates": [[[-70.79852799404675, -28.543977254410557], [-70.80658921265614, -28.554581634960847], [-70.80039389562342, -28.565204284682597], [-70.78613774624749, -28.565222214141183], [-70.77807822755027, -28.554618419388564], [-70.78427315788196, -28.543996109455733], [-70.79852799404675, -28.543977254410557]]]}, "properties": {"h3_id": "87b21d80cffffff", "res": 7, "alerta": "AMARILLO", "pct_rojo": 0.0, "horas_br": 1, "p_ign": 0.375}}, {"type": "Feature", "geometry": {"type": "Polygon", "coordinates": [[[-70.88408837976534, -28.543832799324417], [-70.89215801222072, -28.55443546933669], [-70.88596216131283, -28.565065364410845], [-70.87169705690427, -28.56509225149152], [-70.86362911724974, -28.554490163662436], [-70.86982458876656, -28.54386060664557], [-70.88408837976534, -28.543832799324417]]]}, "properties": {"h3_id": "87b21d811ffffff", "res": 7, "alerta": "AMARILLO", "pct_rojo": 0.0, "horas_br": 1, "p_ign": 0.508}}, {"type": "Feature", "geometry": {"type": "Polygon", "coordinates": [[[-70.7167378376284, -28.58650600156342], [-70.72479224562649, -28.597108033546586], [-70.71859649435179, -28.607717534605214], [-70.70434672844415, -28.607724663768447], [-70.69629402766091, -28.5971232211662], [-70.70248938513684, -28.58651406009579], [-70.7167378376284, -28.58650600156342]]]}, "properties": {"h3_id": "87b21d846ffffff", "res": 7, "alerta": "AMARILLO", "pct_rojo": 0.0, "horas_br": 1, "p_ign": 0.408}}, {"type": "Feature", "geometry": {"type": "Polygon", "coordinates": [[[-70.75949222219916, -28.586472885024364], [-70.76755085467572, -28.5970740720244], [-70.7613548193922, -28.60768720085058], [-70.74710054135139, -28.607698803617286], [-70.73904361255477, -28.597098204189074], [-70.74523925768463, -28.586485414498352], [-70.75949222219916, -28.586472885024364]]]}, "properties": {"h3_id": "87b21d854ffffff", "res": 7, "alerta": "AMARILLO", "pct_rojo": 0.0, "horas_br": 1, "p_ign": 0.508}}, {"type": "Feature", "geometry": {"type": "Polygon", "coordinates": [[[-70.75762994261716, -28.565253599617748], [-70.76568775957395, -28.575856807676413], [-70.75949222219916, -28.586472885024364], [-70.74523925768463, -28.586485414498352], [-70.73718314429478, -28.575882794029614], [-70.74337829141827, -28.565267056572985], [-70.75762994261716, -28.565253599617748]]]}, "properties": {"h3_id": "87b21d872ffffff", "res": 7, "alerta": "AMARILLO", "pct_rojo": 0.0, "horas_br": 1, "p_ign": 0.358}}, {"type": "Feature", "geometry": {"type": "Polygon", "coordinates": [[[-71.0720671016659, -28.490176994671298], [-71.08015352141796, -28.500780809162755], [-71.07395781181157, -28.511434334067943], [-71.05967604515156, -28.51148370858431], [-71.05159130180519, -28.50088046818658], [-71.05778664827375, -28.49022727925492], [-71.0720671016659, -28.490176994671298]]]}, "properties": {"h3_id": "87b21dd6cffffff", "res": 7, "alerta": "AMARILLO", "pct_rojo": 0.0, "horas_br": 1, "p_ign": 0.229}}, {"type": "Feature", "geometry": {"type": "Polygon", "coordinates": [[[-71.16766788193382, -32.11915366509451], [-71.17587582514074, -32.129375926649814], [-71.16959371677855, -32.13947381405639], [-71.1551040295882, -32.13934921183942], [-71.14689780131438, -32.129127508195474], [-71.15317954483818, -32.11902984893041], [-71.16766788193382, -32.11915366509451]]]}, "properties": {"h3_id": "87b2e23a2ffffff", "res": 7, "alerta": "AMARILLO", "pct_rojo": 0.0, "horas_br": 1, "p_ign": 0.4}}, {"type": "Feature", "geometry": {"type": "Polygon", "coordinates": [[[-70.54306850448693, -30.015919659171566], [-70.55114874375984, -30.026385778599742], [-70.54492102107811, -30.036765535598395], [-70.53061347164693, -30.036678876527077], [-70.52253497236694, -30.026213353969695], [-70.5287622820877, -30.015833893688587], [-70.54306850448693, -30.015919659171566]]]}, "properties": {"h3_id": "87b2e4db5ffffff", "res": 7, "alerta": "AMARILLO", "pct_rojo": 0.0, "horas_br": 1, "p_ign": 0.4}}, {"type": "Feature", "geometry": {"type": "Polygon", "coordinates": [[[-71.61659460299506, -31.129013893383117], [-71.62481450714688, -31.13933501891049], [-71.61855465821937, -31.149631153136838], [-71.60407522712818, -31.149605915526646], [-71.59585698561425, -31.13928533785203], [-71.60211651209147, -31.128989450010074], [-71.61659460299506, -31.129013893383117]]]}, "properties": {"h3_id": "87b2e64ecffffff", "res": 7, "alerta": "AMARILLO", "pct_rojo": 0.0, "horas_br": 1, "p_ign": 0.4}}, {"type": "Feature", "geometry": {"type": "Polygon", "coordinates": [[[-71.15372826152961, -30.579968281468428], [-71.16188622266641, -30.590361279950574], [-71.15564139701958, -30.600705357753796], [-71.14123897152847, -30.600656167678434], [-71.13308270626155, -30.590263738780326], [-71.13932717016458, -30.57991993044914], [-71.15372826152961, -30.579968281468428]]]}, "properties": {"h3_id": "87b2e68a4ffffff", "res": 7, "alerta": "AMARILLO", "pct_rojo": 0.0, "horas_br": 1, "p_ign": 0.201}}, {"type": "Feature", "geometry": {"type": "Polygon", "coordinates": [[[-71.11625781758049, -30.642006127173207], [-71.12441404738966, -30.65239347824537], [-71.11816793414603, -30.662724645959983], [-71.10376595583159, -30.662668194335147], [-71.09561142590951, -30.652281414106383], [-71.10185717396384, -30.641950514734567], [-71.11625781758049, -30.642006127173207]]]}, "properties": {"h3_id": "87b2e68a8ffffff", "res": 7, "alerta": "AMARILLO", "pct_rojo": 0.0, "horas_br": 1, "p_ign": 0.4}}, {"type": "Feature", "geometry": {"type": "Polygon", "coordinates": [[[-71.09561142590951, -30.652281414106383], [-71.10376595583159, -30.662668194335147], [-71.09751970424443, -30.67299599843699], [-71.08311928930571, -30.67293675398469], [-71.07496646117305, -30.66255054539954], [-71.08121234573908, -30.65222300969854], [-71.09561142590951, -30.652281414106383]]]}, "properties": {"h3_id": "87b2e68a9ffffff", "res": 7, "alerta": "AMARILLO", "pct_rojo": 0.0, "horas_br": 1, "p_ign": 0.251}}, {"type": "Feature", "geometry": {"type": "Polygon", "coordinates": [[[-71.22143030134417, -30.61127555002853], [-71.22959583388877, -30.621663485564508], [-71.22334993467709, -30.63200836765826], [-71.20893885837697, -30.631965046882417], [-71.20077501628406, -30.62157767801532], [-71.20702055958698, -30.611233063330793], [-71.22143030134417, -30.61127555002853]]]}, "properties": {"h3_id": "87b2e68b0ffffff", "res": 7, "alerta": "AMARILLO", "pct_rojo": 0.0, "horas_br": 1, "p_ign": 0.251}}, {"type": "Feature", "geometry": {"type": "Polygon", "coordinates": [[[-71.19885754928657, -30.60084343689133], [-71.20702055958698, -30.611233063330793], [-71.20077501628406, -30.62157767801532], [-71.1863668200841, -30.62153239823914], [-71.17820550204443, -30.611143339440176], [-71.18445068749183, -30.600798992852496], [-71.19885754928657, -30.60084343689133]]]}, "properties": {"h3_id": "87b2e68b5ffffff", "res": 7, "alerta": "AMARILLO", "pct_rojo": 0.0, "horas_br": 1, "p_ign": 0.176}}, {"type": "Feature", "geometry": {"type": "Polygon", "coordinates": [[[-71.05622752972033, -30.693520231174137], [-71.06437948522517, -30.703903610961877], [-71.05813245796872, -30.714221587688833], [-71.0437338453324, -30.714155916813546], [-71.03558359552316, -30.703773110091458], [-71.04183025220452, -30.693455401254425], [-71.05622752972033, -30.693520231174137]]]}, "properties": {"h3_id": "87b2e68f1ffffff", "res": 7, "alerta": "AMARILLO", "pct_rojo": 0.0, "horas_br": 1, "p_ign": 0.251}}, {"type": "Feature", "geometry": {"type": "Polygon", "coordinates": [[[-71.07496646117305, -30.66255054539954], [-71.08311928930571, -30.67293675398469], [-71.07687290103128, -30.683261193733433], [-71.06247405302608, -30.683199156514966], [-71.05432292858335, -30.67281352037344], [-71.06056894800555, -30.662489349082207], [-71.07496646117305, -30.66255054539954]]]}, "properties": {"h3_id": "87b2e68f4ffffff", "res": 7, "alerta": "AMARILLO", "pct_rojo": 0.0, "horas_br": 1, "p_ign": 0.251}}, {"type": "Feature", "geometry": {"type": "Polygon", "coordinates": [[[-71.05432292858335, -30.67281352037344], [-71.06247405302608, -30.683199156514966], [-71.05622752972033, -30.693520231174137], [-71.04183025220452, -30.693455401254425], [-71.03368083335052, -30.68307033835634], [-71.03992698597361, -30.672749532209956], [-71.05432292858335, -30.67281352037344]]]}, "properties": {"h3_id": "87b2e68f5ffffff", "res": 7, "alerta": "AMARILLO", "pct_rojo": 0.0, "horas_br": 1, "p_ign": 0.251}}, {"type": "Feature", "geometry": {"type": "Polygon", "coordinates": [[[-71.14799082439451, -30.5177250176371], [-71.15614629253415, -30.528124762420124], [-71.1499029752973, -30.53847810796185], [-71.13550455154328, -30.53843143744017], [-71.12735077896203, -30.528032262742176], [-71.13359373412555, -30.517679188556507], [-71.14799082439451, -30.5177250176371]]]}, "properties": {"h3_id": "87b2e6981ffffff", "res": 7, "alerta": "AMARILLO", "pct_rojo": 0.0, "horas_br": 1, "p_ign": 0.4}}, {"type": "Feature", "geometry": {"type": "Polygon", "coordinates": [[[-71.19502360220254, -30.559358916240352], [-71.20318494935879, -30.569753051482294], [-71.1969404112862, -30.580103848487063], [-71.1825348836831, -30.580060240979325], [-71.17437522858263, -30.569666673715833], [-71.18061940857758, -30.559316146057252], [-71.19502360220254, -30.559358916240352]]]}, "properties": {"h3_id": "87b2e6998ffffff", "res": 7, "alerta": "AMARILLO", "pct_rojo": 0.0, "horas_br": 1, "p_ign": 0.192}}, {"type": "Feature", "geometry": {"type": "Polygon", "coordinates": [[[-71.17437522858263, -30.569666673715833], [-71.1825348836831, -30.580060240979325], [-71.17629020099527, -30.59040767876379], [-71.16188622266641, -30.590361279950574], [-71.15372826152961, -30.579968281468428], [-71.1599725843064, -30.569621113093778], [-71.17437522858263, -30.569666673715833]]]}, "properties": {"h3_id": "87b2e6999ffffff", "res": 7, "alerta": "AMARILLO", "pct_rojo": 0.0, "horas_br": 1, "p_ign": 0.251}}, {"type": "Feature", "geometry": {"type": "Polygon", "coordinates": [[[-71.19310712195526, -30.538608643596387], [-71.2012676377598, -30.54900503006131], [-71.19502360220254, -30.559358916240352], [-71.18061940857758, -30.559316146057252], [-71.17246058472625, -30.54892032773746], [-71.17870426209493, -30.538566711531264], [-71.19310712195526, -30.538608643596387]]]}, "properties": {"h3_id": "87b2e699cffffff", "res": 7, "alerta": "AMARILLO", "pct_rojo": 0.0, "horas_br": 1, "p_ign": 0.4}}, {"type": "Feature", "geometry": {"type": "Polygon", "coordinates": [[[-70.5856368845303, -30.731889784439403], [-70.59374342728947, -30.742280567921373], [-70.58749841083159, -30.752552284564366], [-70.57314726271692, -30.7524329433834], [-70.5650424659099, -30.742042752215742], [-70.57128707082352, -30.731771309989895], [-70.5856368845303, -30.731889784439403]]]}, "properties": {"h3_id": "87b2e6b66ffffff", "res": 7, "alerta": "AMARILLO", "pct_rojo": 0.0, "horas_br": 1, "p_ign": 0.4}}, {"type": "Feature", "geometry": {"type": "Polygon", "coordinates": [[[-70.84608163927663, -30.75443192090893], [-70.85421479285577, -30.764814041106327], [-70.84796751587265, -30.775104528509956], [-70.83358747391568, -30.775012626176846], [-70.82545604470414, -30.764631087395088], [-70.83170293263532, -30.75434086960603], [-70.84608163927663, -30.75443192090893]]]}, "properties": {"h3_id": "87b2e6ba1ffffff", "res": 7, "alerta": "AMARILLO", "pct_rojo": 0.0, "horas_br": 1, "p_ign": 0.4}}, {"type": "Feature", "geometry": {"type": "Polygon", "coordinates": [[[-71.42288858517902, -30.68427437927846], [-71.43107591302605, -30.69464922872939], [-71.4248274000349, -30.704999584546186], [-71.41039189716614, -30.704974829157653], [-71.4022062432575, -30.694600537813052], [-71.40845441782274, -30.68425044382633], [-71.42288858517902, -30.68427437927846]]]}, "properties": {"h3_id": "87b2e6c0dffffff", "res": 7, "alerta": "AMARILLO", "pct_rojo": 0.0, "horas_br": 1, "p_ign": 0.4}}, {"type": "Feature", "geometry": {"type": "Polygon", "coordinates": [[[-71.52826837698635, -30.653295987685027], [-71.53646488005825, -30.663671336650943], [-71.5302167074171, -30.67403538230644], [-71.51577236031528, -30.674023818259265], [-71.5075775215889, -30.663649023252923], [-71.51382536516067, -30.653285238409953], [-71.52826837698635, -30.653295987685027]]]}, "properties": {"h3_id": "87b2e6c15ffffff", "res": 7, "alerta": "AMARILLO", "pct_rojo": 0.0, "horas_br": 1, "p_ign": 0.251}}, {"type": "Feature", "geometry": {"type": "Polygon", "coordinates": [[[-71.43775231445538, -30.611722478850847], [-71.44593881259337, -30.62210470821896], [-71.4396919680322, -30.632467706456243], [-71.42525896180858, -30.632448211809955], [-71.41707413538964, -30.622066540268673], [-71.42332064301891, -30.611703805622582], [-71.43775231445538, -30.611722478850847]]]}, "properties": {"h3_id": "87b2e6c21ffffff", "res": 7, "alerta": "AMARILLO", "pct_rojo": 0.0, "horas_br": 1, "p_ign": 0.4}}, {"type": "Feature", "geometry": {"type": "Polygon", "coordinates": [[[-71.46037332447594, -30.62212140427911], [-71.46856232625184, -30.632501918408618], [-71.46231514672178, -30.642865179542472], [-71.4478792999279, -30.642847663725956], [-71.4396919680322, -30.632467706456243], [-71.44593881259337, -30.62210470821896], [-71.46037332447594, -30.62212140427911]]]}, "properties": {"h3_id": "87b2e6c23ffffff", "res": 7, "alerta": "AMARILLO", "pct_rojo": 0.0, "horas_br": 1, "p_ign": 0.4}}, {"type": "Feature", "geometry": {"type": "Polygon", "coordinates": [[[-71.4396919680322, -30.632467706456243], [-71.4478792999279, -30.642847663725956], [-71.44163195424223, -30.653207568617045], [-71.42719761301893, -30.653187253337506], [-71.4190119529375, -30.64280785372442], [-71.42525896180858, -30.632448211809955], [-71.4396919680322, -30.632467706456243]]]}, "properties": {"h3_id": "87b2e6c2effffff", "res": 7, "alerta": "AMARILLO", "pct_rojo": 0.0, "horas_br": 1, "p_ign": 0.251}}, {"type": "Feature", "geometry": {"type": "Polygon", "coordinates": [[[-71.36084561864244, -30.715234375363263], [-71.36902791888008, -30.725607548111615], [-71.36277892128992, -30.735947823994813], [-71.34834796696707, -30.735914665147682], [-71.34016734645871, -30.72554205288884], [-71.34641600008834, -30.715202039063204], [-71.36084561864244, -30.715234375363263]]]}, "properties": {"h3_id": "87b2e6c46ffffff", "res": 7, "alerta": "AMARILLO", "pct_rojo": 0.0, "horas_br": 1, "p_ign": 0.4}}, {"type": "Feature", "geometry": {"type": "Polygon", "coordinates": [[[-71.2800667027377, -30.77712586300156], [-71.28824310592312, -30.787494512051698], [-71.2819929827019, -30.79781823453842], [-71.2675668070585, -30.79777304631984], [-71.25939209139992, -30.787404960751832], [-71.2656418634034, -30.77708149999573], [-71.2800667027377, -30.77712586300156]]]}, "properties": {"h3_id": "87b2e6c49ffffff", "res": 7, "alerta": "AMARILLO", "pct_rojo": 0.0, "horas_br": 1, "p_ign": 0.4}}, {"type": "Feature", "geometry": {"type": "Polygon", "coordinates": [[[-71.31563218162536, -30.69441623966749], [-71.32380945368301, -30.704792839051613], [-71.31756114597239, -30.71513259013458], [-71.3031359136252, -30.715095478481278], [-71.29496032495086, -30.704719441530802], [-71.30120828478572, -30.69437995387556], [-71.31563218162536, -30.69441623966749]]]}, "properties": {"h3_id": "87b2e6c63ffffff", "res": 7, "alerta": "AMARILLO", "pct_rojo": 0.0, "horas_br": 1, "p_ign": 0.4}}, {"type": "Feature", "geometry": {"type": "Polygon", "coordinates": [[[-71.31177524573117, -30.652967436333487], [-71.31995085158238, -30.663348575744518], [-71.31370354823855, -30.67369452059839], [-71.29928098669319, -30.67365906145837], [-71.29110706402713, -30.66327848483112], [-71.29735401926686, -30.65293280463571], [-71.31177524573117, -30.652967436333487]]]}, "properties": {"h3_id": "87b2e6c64ffffff", "res": 7, "alerta": "AMARILLO", "pct_rojo": 0.0, "horas_br": 1, "p_ign": 0.4}}, {"type": "Feature", "geometry": {"type": "Polygon", "coordinates": [[[-71.29688745139336, -30.725431867907457], [-71.30506387329241, -30.735805631876854], [-71.29881490859731, -30.746138921773102], [-71.28438987115192, -30.74609818489082], [-71.27621513465805, -30.735724983972265], [-71.28246374974987, -30.725391956960653], [-71.29688745139336, -30.725431867907457]]]}, "properties": {"h3_id": "87b2e6c6affffff", "res": 7, "alerta": "AMARILLO", "pct_rojo": 0.0, "horas_br": 1, "p_ign": 0.251}}, {"type": "Feature", "geometry": {"type": "Polygon", "coordinates": [[[-71.45260936379465, -30.539092688545097], [-71.46079503104153, -30.54948227907217], [-71.4545498548819, -30.559857902796924], [-71.44011934645884, -30.559843670707842], [-71.4319353487135, -30.54945463770848], [-71.43818018943342, -30.539079279346296], [-71.45260936379465, -30.539092688545097]]]}, "properties": {"h3_id": "87b2e6d0effffff", "res": 7, "alerta": "AMARILLO", "pct_rojo": 0.0, "horas_br": 1, "p_ign": 0.251}}, {"type": "Feature", "geometry": {"type": "Polygon", "coordinates": [[[-71.47716970047874, -30.570257484758688], [-71.48535870245311, -30.580643097711683], [-71.47911269219014, -30.5910158968288], [-71.4646780128551, -30.591002819023252], [-71.45649067863714, -30.58061776246817], [-71.46273635554098, -30.5702452273965], [-71.47716970047874, -30.570257484758688]]]}, "properties": {"h3_id": "87b2e6d19ffffff", "res": 7, "alerta": "AMARILLO", "pct_rojo": 0.0, "horas_br": 1, "p_ign": 0.4}}, {"type": "Feature", "geometry": {"type": "Polygon", "coordinates": [[[-71.28725512518022, -30.621816078921427], [-71.295427382426, -30.63220118682102], [-71.28918092938441, -30.642549961319936], [-71.27476256881458, -30.642513362030037], [-71.26659199647528, -30.632128818057488], [-71.27283809934552, -30.62178030952342], [-71.28725512518022, -30.621816078921427]]]}, "properties": {"h3_id": "87b2e6d48ffffff", "res": 7, "alerta": "AMARILLO", "pct_rojo": 0.0, "horas_br": 1, "p_ign": 0.251}}, {"type": "Feature", "geometry": {"type": "Polygon", "coordinates": [[[-71.41513665011564, -30.601319864259864], [-71.42332064301891, -30.611703805622582], [-71.41707413538964, -30.622066540268673], [-71.40264397329439, -30.62204506934202], [-71.39446165394604, -30.611661686773363], [-71.40070782268211, -30.601299216413032], [-71.41513665011564, -30.601319864259864]]]}, "properties": {"h3_id": "87b2e6d52ffffff", "res": 7, "alerta": "AMARILLO", "pct_rojo": 0.0, "horas_br": 1, "p_ign": 0.251}}, {"type": "Feature", "geometry": {"type": "Polygon", "coordinates": [[[-71.35311572404922, -30.63232687117122], [-71.3612946905011, -30.642709133756956], [-71.3550477004599, -30.65306179685529], [-71.34062208793344, -30.653031932929995], [-71.33244480081973, -30.642650231532738], [-71.33869144643928, -30.632297832947962], [-71.35311572404922, -30.63232687117122]]]}, "properties": {"h3_id": "87b2e6d58ffffff", "res": 7, "alerta": "AMARILLO", "pct_rojo": 0.0, "horas_br": 1, "p_ign": 0.201}}, {"type": "Feature", "geometry": {"type": "Polygon", "coordinates": [[[-71.37572182313943, -30.642736200035852], [-71.38390330032661, -30.65311675353087], [-71.37765596782164, -30.663469680452273], [-71.36322750013777, -30.66344179013127], [-71.3550477004599, -30.65306179685529], [-71.3612946905011, -30.642709133756956], [-71.37572182313943, -30.642736200035852]]]}, "properties": {"h3_id": "87b2e6d5affffff", "res": 7, "alerta": "AMARILLO", "pct_rojo": 0.0, "horas_br": 1, "p_ign": 0.4}}, {"type": "Feature", "geometry": {"type": "Polygon", "coordinates": [[[-71.35118407899547, -30.611586584759763], [-71.35936221236824, -30.621971114549538], [-71.35311572404922, -30.63232687117122], [-71.33869144643928, -30.632297832947962], [-71.33051499230683, -30.62191386451756], [-71.33676113608912, -30.611558373026718], [-71.35118407899547, -30.611586584759763]]]}, "properties": {"h3_id": "87b2e6d5cffffff", "res": 7, "alerta": "AMARILLO", "pct_rojo": 0.0, "horas_br": 1, "p_ign": 0.176}}, {"type": "Feature", "geometry": {"type": "Polygon", "coordinates": [[[-71.33051499230683, -30.62191386451756], [-71.33869144643928, -30.632297832947962], [-71.33244480081973, -30.642650231532738], [-71.31802204699089, -30.642618396558763], [-71.30984727402245, -30.63223499028643], [-71.31609357326424, -30.62188285690566], [-71.33051499230683, -30.62191386451756]]]}, "properties": {"h3_id": "87b2e6d5dffffff", "res": 7, "alerta": "AMARILLO", "pct_rojo": 0.0, "horas_br": 1, "p_ign": 0.176}}, {"type": "Feature", "geometry": {"type": "Polygon", "coordinates": [[[-71.24016584106587, -30.580225176128728], [-71.24833223015338, -30.590615935445236], [-71.24208698176403, -30.600967269071504], [-71.22767569801911, -30.600927575491287], [-71.21951099736886, -30.59053738221259], [-71.22575589157348, -30.580186316551924], [-71.24016584106587, -30.580225176128728]]]}, "properties": {"h3_id": "87b2e6d69ffffff", "res": 7, "alerta": "AMARILLO", "pct_rojo": 0.0, "horas_br": 1, "p_ign": 0.4}}, {"type": "Feature", "geometry": {"type": "Polygon", "coordinates": [[[-71.25889942782226, -30.549155457187535], [-71.26706667148349, -30.55954903770338], [-71.26082207515016, -30.56990681937214], [-71.24641058716357, -30.569870752078938], [-71.23824502992466, -30.55947773696623], [-71.24448927379706, -30.549120223819287], [-71.25889942782226, -30.549155457187535]]]}, "properties": {"h3_id": "87b2e6d6cffffff", "res": 7, "alerta": "AMARILLO", "pct_rojo": 0.0, "horas_br": 1, "p_ign": 0.4}}, {"type": "Feature", "geometry": {"type": "Polygon", "coordinates": [[[-71.56770237376786, -30.61181886552033], [-71.57590136494511, -30.622197599451763], [-71.56965404091005, -30.632571447763212], [-71.55520805072906, -30.632566300968634], [-71.54701071991877, -30.622188119576265], [-71.55325771846393, -30.611814532515247], [-71.56770237376786, -30.61181886552033]]]}, "properties": {"h3_id": "87b2e6d8dffffff", "res": 7, "alerta": "AMARILLO", "pct_rojo": 0.0, "horas_br": 1, "p_ign": 0.4}}, {"type": "Feature", "geometry": {"type": "Polygon", "coordinates": [[[-70.1324113542276, -18.8111789864468], [-70.14014003268073, -18.822387546589255], [-70.1341557607683, -18.83409659206149], [-70.12044322411656, -18.83459630781534], [-70.11271618503746, -18.823388169940298], [-70.11870004285403, -18.8116798940855], [-70.1324113542276, -18.8111789864468]]]}, "properties": {"h3_id": "87b3008a8ffffff", "res": 7, "alerta": "ROJO", "pct_rojo": 100.0, "horas_br": 1, "p_ign": 0.559}}, {"type": "Feature", "geometry": {"type": "Polygon", "coordinates": [[[-69.53747343994655, -19.940329290824486], [-69.54517133300176, -19.951499997786318], [-69.53917085065612, -19.96305925150142], [-69.525472938702, -19.96344706319507], [-69.51777674111771, -19.952276842924697], [-69.52377675964054, -19.94071832431594], [-69.53747343994655, -19.940329290824486]]]}, "properties": {"h3_id": "87b30144affffff", "res": 7, "alerta": "ROJO", "pct_rojo": 100.0, "horas_br": 1, "p_ign": 0.584}}, {"type": "Feature", "geometry": {"type": "Polygon", "coordinates": [[[-69.21752126623099, -20.06283837667295], [-69.22518958280025, -20.074003511646108], [-69.21919052375893, -20.08552475327581], [-69.20552363675414, -20.085880120921882], [-69.19785703996571, -20.07471549089034], [-69.20385561003042, -20.063194988317843], [-69.21752126623099, -20.06283837667295]]]}, "properties": {"h3_id": "87b30176bffffff", "res": 7, "alerta": "ROJO", "pct_rojo": 100.0, "horas_br": 1, "p_ign": 0.676}}, {"type": "Feature", "geometry": {"type": "Polygon", "coordinates": [[[-69.99756238419222, -18.390661210853477], [-70.0052670008846, -18.401880431322592], [-69.99929231182087, -18.413614493808215], [-69.9856134291575, -18.414128541436146], [-69.97791045725445, -18.40290973426744], [-69.98388472284725, -18.391176466208893], [-69.99756238419222, -18.390661210853477]]]}, "properties": {"h3_id": "87b3042a3ffffff", "res": 7, "alerta": "ROJO", "pct_rojo": 100.0, "horas_br": 1, "p_ign": 0.665}}, {"type": "Feature", "geometry": {"type": "Polygon", "coordinates": [[[-69.76272426199355, -18.824332946118773], [-69.77041640413667, -18.835539470884424], [-69.76443560563088, -18.847217994197987], [-69.75076310757325, -18.847689211230833], [-69.74307263211392, -18.83648312569834], [-69.74905298765262, -18.824805383940376], [-69.76272426199355, -18.824332946118773]]]}, "properties": {"h3_id": "87b305499ffffff", "res": 7, "alerta": "ROJO", "pct_rojo": 100.0, "horas_br": 1, "p_ign": 0.542}}, {"type": "Feature", "geometry": {"type": "Polygon", "coordinates": [[[-69.54529591060735, -18.384203844856227], [-69.55295498289975, -18.395420433780714], [-69.54698528775373, -18.407119037180788], [-69.53335697840254, -18.407600241524488], [-69.5256995836155, -18.396384085874274], [-69.53166882030386, -18.38468629264322], [-69.54529591060735, -18.384203844856227]]]}, "properties": {"h3_id": "87b305c8cffffff", "res": 7, "alerta": "ROJO", "pct_rojo": 100.0, "horas_br": 1, "p_ign": 0.655}}, {"type": "Feature", "geometry": {"type": "Polygon", "coordinates": [[[-69.50883801887808, -18.16713565628107], [-69.51648793137494, -18.178357047358368], [-69.51052292333061, -18.19007076831085], [-69.49690846302205, -18.190562276253296], [-69.4892602282359, -18.179341312152797], [-69.4952247756786, -18.16762841316866], [-69.50883801887808, -18.16713565628107]]]}, "properties": {"h3_id": "87b305dacffffff", "res": 7, "alerta": "ROJO", "pct_rojo": 100.0, "horas_br": 1, "p_ign": 0.651}}, {"type": "Feature", "geometry": {"type": "Polygon", "coordinates": [[[-68.9629984467035, -22.468431790234487], [-68.97070303528913, -22.47949355892578], [-68.96465821989837, -22.490744333481096], [-68.95090933243499, -22.49093270803926], [-68.94320651012228, -22.479871522708997], [-68.94925080862468, -22.468621379518666], [-68.9629984467035, -22.468431790234487]]]}, "properties": {"h3_id": "87b30b5acffffff", "res": 7, "alerta": "ROJO", "pct_rojo": 25.0, "horas_br": 1, "p_ign": 0.468}}]}