{"type": "FeatureCollection", "features": [{"type": "Feature", "geometry": {"type": "Polygon", "coordinates": [[[-71.2708547032088, -29.976446294121768], [-71.27900540761861, -29.98689947733135], [-71.27277428826145, -29.997347124502834], [-71.25839281393584, -29.99734130355], [-71.25024378761938, -29.986888687057224], [-71.25647455708494, -29.976441324876628], [-71.2708547032088, -29.976446294121768]]]}, "properties": {"h3_id": "87b219084ffffff", "res": 7, "alerta": "AMARILLO", "pct_rojo": 0.0, "horas_br": 1, "p_ign": 0.466}}, {"type": "Feature", "geometry": {"type": "Polygon", "coordinates": [[[-71.33654615344275, -29.98690230450273], [-71.34470353832263, -29.997352779895255], [-71.33847188037711, -30.007804329790414], [-71.32408318128712, -30.007805120918565], [-71.31592746897853, -29.997355209515174], [-71.32215878273725, -29.986903943070686], [-71.33654615344275, -29.98690230450273]]]}, "properties": {"h3_id": "87b219094ffffff", "res": 7, "alerta": "AMARILLO", "pct_rojo": 0.0, "horas_br": 1, "p_ign": 0.366}}, {"type": "Feature", "geometry": {"type": "Polygon", "coordinates": [[[-71.26701651853703, -29.934628893089805], [-71.2751655664987, -29.945086469687404], [-71.26893544666066, -29.95554021576325], [-71.25455662852683, -29.955536099007055], [-71.24640925845927, -29.94507908936878], [-71.2526390281815, -29.934625629603524], [-71.26701651853703, -29.934628893089805]]]}, "properties": {"h3_id": "87b2190a6ffffff", "res": 7, "alerta": "AMARILLO", "pct_rojo": 0.0, "horas_br": 1, "p_ign": 0.292}}, {"type": "Feature", "geometry": {"type": "Polygon", "coordinates": [[[-71.31208065859002, -29.95554319852737], [-71.32023471347254, -29.965997512686442], [-71.31400389921461, -29.976451829180185], [-71.29961937586407, -29.976451546749306], [-71.29146699526501, -29.965997797650882], [-71.29769746328219, -29.955543765998858], [-71.31208065859002, -29.95554319852737]]]}, "properties": {"h3_id": "87b2190b0ffffff", "res": 7, "alerta": "AMARILLO", "pct_rojo": 0.0, "horas_br": 1, "p_ign": 0.333}}, {"type": "Feature", "geometry": {"type": "Polygon", "coordinates": [[[-71.29146699526501, -29.965997797650882], [-71.29961937586407, -29.976451546749306], [-71.29338840823289, -29.986902529009967], [-71.27900540761861, -29.98689947733135], [-71.2708547032088, -29.976446294121768], [-71.27708532277349, -29.9659955967781], [-71.29146699526501, -29.965997797650882]]]}, "properties": {"h3_id": "87b2190b1ffffff", "res": 7, "alerta": "AMARILLO", "pct_rojo": 0.0, "horas_br": 1, "p_ign": 0.379}}, {"type": "Feature", "geometry": {"type": "Polygon", "coordinates": [[[-71.33462075600501, -29.96599502589982], [-71.34277731200132, -29.976447703901798], [-71.33654615344275, -29.98690230450273], [-71.32215878273725, -29.986903943070686], [-71.31400389921461, -29.976451829180185], [-71.32023471347254, -29.965997512686442], [-71.33462075600501, -29.96599502589982]]]}, "properties": {"h3_id": "87b2190b2ffffff", "res": 7, "alerta": "AMARILLO", "pct_rojo": 0.0, "horas_br": 1, "p_ign": 0.366}}, {"type": "Feature", "geometry": {"type": "Polygon", "coordinates": [[[-71.31400389921461, -29.976451829180185], [-71.32215878273725, -29.986903943070686], [-71.31592746897853, -29.997355209515174], [-71.30154161737374, -29.997354077961514], [-71.29338840823289, -29.986902529009967], [-71.29961937586407, -29.976451546749306], [-71.31400389921461, -29.976451829180185]]]}, "properties": {"h3_id": "87b2190b3ffffff", "res": 7, "alerta": "AMARILLO", "pct_rojo": 0.0, "horas_br": 1, "p_ign": 0.366}}, {"type": "Feature", "geometry": {"type": "Polygon", "coordinates": [[[-71.28954591107909, -29.94508781897406], [-71.29769746328219, -29.955543765998858], [-71.29146699526501, -29.965997797650882], [-71.27708532277349, -29.9659955967781], [-71.26893544666066, -29.95554021576325], [-71.2751655664987, -29.945086469687404], [-71.28954591107909, -29.94508781897406]]]}, "properties": {"h3_id": "87b2190b5ffffff", "res": 7, "alerta": "AMARILLO", "pct_rojo": 0.0, "horas_br": 1, "p_ign": 0.283}}, {"type": "Feature", "geometry": {"type": "Polygon", "coordinates": [[[-71.3326956879837, -29.945082497641717], [-71.34085141524221, -29.95553737603305], [-71.33462075600501, -29.96599502589982], [-71.32023471347254, -29.965997512686442], [-71.31208065859002, -29.95554319852737], [-71.31831097341285, -29.94508583342561], [-71.3326956879837, -29.945082497641717]]]}, "properties": {"h3_id": "87b2190b6ffffff", "res": 7, "alerta": "AMARILLO", "pct_rojo": 0.0, "horas_br": 1, "p_ign": 0.466}}, {"type": "Feature", "geometry": {"type": "Polygon", "coordinates": [[[-70.89835122772224, -30.381833787651686], [-70.90647799573924, -30.392253988862805], [-70.9002392715445, -30.402607391033957], [-70.8858741623028, -30.402540312462385], [-70.87774910934515, -30.392120692170085], [-70.88398745012412, -30.381767569606158], [-70.89835122772224, -30.381833787651686]]]}, "properties": {"h3_id": "87b2192d1ffffff", "res": 7, "alerta": "AMARILLO", "pct_rojo": 0.0, "horas_br": 1, "p_ign": 0.4}}, {"type": "Feature", "geometry": {"type": "Polygon", "coordinates": [[[-71.17970096089864, -30.393207494916982], [-71.18785566135168, -30.40361958028083], [-71.18161514153901, -30.413995053254443], [-71.1672202797856, -30.41395816654393], [-71.15906727056702, -30.403546650448693], [-71.16530743141662, -30.393171451871137], [-71.17970096089864, -30.393207494916982]]]}, "properties": {"h3_id": "87b21965cffffff", "res": 7, "alerta": "AMARILLO", "pct_rojo": 0.0, "horas_br": 1, "p_ign": 0.472}}, {"type": "Feature", "geometry": {"type": "Polygon", "coordinates": [[[-71.22051562310735, -30.13301098686455], [-71.22866625857598, -30.14344923644974], [-71.22243169058221, -30.15386852839903], [-71.20804684136756, -30.15384928956319], [-71.19989789030261, -30.143411608394942], [-71.20613210359849, -30.132992597721625], [-71.22051562310735, -30.13301098686455]]]}, "properties": {"h3_id": "87b219728ffffff", "res": 7, "alerta": "AMARILLO", "pct_rojo": 0.0, "horas_br": 1, "p_ign": 0.466}}, {"type": "Feature", "geometry": {"type": "Polygon", "coordinates": [[[-71.2411347464416, -30.122604249244212], [-71.24928706441113, -30.133043066424744], [-71.24305264426773, -30.14346570059269], [-71.22866625857598, -30.14344923644974], [-71.22051562310735, -30.13301098686455], [-71.22674969037912, -30.122588633903003], [-71.2411347464416, -30.122604249244212]]]}, "properties": {"h3_id": "87b21972effffff", "res": 7, "alerta": "AMARILLO", "pct_rojo": 0.0, "horas_br": 1, "p_ign": 0.466}}, {"type": "Feature", "geometry": {"type": "Polygon", "coordinates": [[[-71.42354186257069, -30.226974293334347], [-71.43171504621402, -30.2373976162892], [-71.42547737335342, -30.247819407331022], [-71.4110668535896, -30.247817600696816], [-71.40289533802277, -30.237394837554138], [-71.40913267368914, -30.22697332130956], [-71.42354186257069, -30.226974293334347]]]}, "properties": {"h3_id": "87b219781ffffff", "res": 7, "alerta": "AMARILLO", "pct_rojo": 0.0, "horas_br": 1, "p_ign": 0.366}}, {"type": "Feature", "geometry": {"type": "Polygon", "coordinates": [[[-71.47065744073295, -30.26865767023657], [-71.47883644940846, -30.279075401788845], [-71.47259760849482, -30.289494670783608], [-71.4581800916184, -30.289495935580565], [-71.45000274745215, -30.279078761787023], [-71.4562412551979, -30.268659765513867], [-71.47065744073295, -30.26865767023657]]]}, "properties": {"h3_id": "87b219798ffffff", "res": 7, "alerta": "AMARILLO", "pct_rojo": 0.0, "horas_br": 1, "p_ign": 0.466}}, {"type": "Feature", "geometry": {"type": "Polygon", "coordinates": [[[-71.45000274745215, -30.279078761787023], [-71.4581800916184, -30.289495935580565], [-71.45194108416281, -30.299911861619403], [-71.43752506709271, -30.29991034113586], [-71.42934938936298, -30.28949372591339], [-71.43558806181198, -30.279078072679415], [-71.45000274745215, -30.279078761787023]]]}, "properties": {"h3_id": "87b219799ffffff", "res": 7, "alerta": "AMARILLO", "pct_rojo": 0.0, "horas_br": 1, "p_ign": 0.466}}, {"type": "Feature", "geometry": {"type": "Polygon", "coordinates": [[[-71.41967183504579, -30.18526817377081], [-71.4278433566957, -30.195695957680606], [-71.42160668316168, -30.20612388095575], [-71.40719882495077, -30.206123744319722], [-71.39902897118675, -30.195696520500263], [-71.4052653072939, -30.18526887330261], [-71.41967183504579, -30.18526817377081]]]}, "properties": {"h3_id": "87b2197a3ffffff", "res": 7, "alerta": "AMARILLO", "pct_rojo": 0.0, "horas_br": 1, "p_ign": 0.466}}, {"type": "Feature", "geometry": {"type": "Polygon", "coordinates": [[[-71.39902897118675, -30.195696520500263], [-71.40719882495077, -30.206123744319722], [-71.40096198909679, -30.21654832674022], [-71.38655563828699, -30.21654540925928], [-71.37838745432963, -30.20611874634686], [-71.38462395092183, -30.19569444008442], [-71.39902897118675, -30.195696520500263]]]}, "properties": {"h3_id": "87b2197aeffffff", "res": 7, "alerta": "AMARILLO", "pct_rojo": 0.0, "horas_br": 1, "p_ign": 0.466}}, {"type": "Feature", "geometry": {"type": "Polygon", "coordinates": [[[-70.84130147422448, -28.54391174212412], [-70.84936690313235, -28.554515270458317], [-70.84317131563871, -28.565141543813738], [-70.82891068184999, -28.565163949985827], [-70.82084694930326, -28.55456100564157], [-70.82704215374848, -28.543935071211354], [-70.84130147422448, -28.54391174212412]]]}, "properties": {"h3_id": "87b21d803ffffff", "res": 7, "alerta": "AMARILLO", "pct_rojo": 0.0, "horas_br": 1, "p_ign": 0.362}}, {"type": "Feature", "geometry": {"type": "Polygon", "coordinates": [[[-70.80039389562342, -28.565204284682597], [-70.80845592997674, -28.57580664414096], [-70.8022601153652, -28.586426347200362], [-70.78800265256771, -28.586443351844352], [-70.77994231823835, -28.57584157816749], [-70.78613774624749, -28.565222214141183], [-70.80039389562342, -28.565204284682597]]]}, "properties": {"h3_id": "87b21d808ffffff", "res": 7, "alerta": "AMARILLO", "pct_rojo": 0.0, "horas_br": 1, "p_ign": 0.422}}, {"type": "Feature", "geometry": {"type": "Polygon", "coordinates": [[[-70.77994231823835, -28.57584157816749], [-70.78800265256771, -28.586443351844352], [-70.78180672681455, -28.597059768277276], [-70.76755085467572, -28.5970740720244], [-70.75949222219916, -28.586472885024364], [-70.76568775957395, -28.575856807676413], [-70.77994231823835, -28.57584157816749]]]}, "properties": {"h3_id": "87b21d809ffffff", "res": 7, "alerta": "AMARILLO", "pct_rojo": 0.0, "horas_br": 1, "p_ign": 0.422}}, {"type": "Feature", "geometry": {"type": "Polygon", "coordinates": [[[-70.79852799404675, -28.543977254410557], [-70.80658921265614, -28.554581634960847], [-70.80039389562342, -28.565204284682597], [-70.78613774624749, -28.565222214141183], [-70.77807822755027, -28.554618419388564], [-70.78427315788196, -28.543996109455733], [-70.79852799404675, -28.543977254410557]]]}, "properties": {"h3_id": "87b21d80cffffff", "res": 7, "alerta": "AMARILLO", "pct_rojo": 0.0, "horas_br": 1, "p_ign": 0.389}}, {"type": "Feature", "geometry": {"type": "Polygon", "coordinates": [[[-70.88408837976534, -28.543832799324417], [-70.89215801222072, -28.55443546933669], [-70.88596216131283, -28.565065364410845], [-70.87169705690427, -28.56509225149152], [-70.86362911724974, -28.554490163662436], [-70.86982458876656, -28.54386060664557], [-70.88408837976534, -28.543832799324417]]]}, "properties": {"h3_id": "87b21d811ffffff", "res": 7, "alerta": "AMARILLO", "pct_rojo": 0.0, "horas_br": 1, "p_ign": 0.522}}, {"type": "Feature", "geometry": {"type": "Polygon", "coordinates": [[[-70.7167378376284, -28.58650600156342], [-70.72479224562649, -28.597108033546586], [-70.71859649435179, -28.607717534605214], [-70.70434672844415, -28.607724663768447], [-70.69629402766091, -28.5971232211662], [-70.70248938513684, -28.58651406009579], [-70.7167378376284, -28.58650600156342]]]}, "properties": {"h3_id": "87b21d846ffffff", "res": 7, "alerta": "AMARILLO", "pct_rojo": 0.0, "horas_br": 1, "p_ign": 0.422}}, {"type": "Feature", "geometry": {"type": "Polygon", "coordinates": [[[-70.75949222219916, -28.586472885024364], [-70.76755085467572, -28.5970740720244], [-70.7613548193922, -28.60768720085058], [-70.74710054135139, -28.607698803617286], [-70.73904361255477, -28.597098204189074], [-70.74523925768463, -28.586485414498352], [-70.75949222219916, -28.586472885024364]]]}, "properties": {"h3_id": "87b21d854ffffff", "res": 7, "alerta": "AMARILLO", "pct_rojo": 0.0, "horas_br": 1, "p_ign": 0.522}}, {"type": "Feature", "geometry": {"type": "Polygon", "coordinates": [[[-70.75762994261716, -28.565253599617748], [-70.76568775957395, -28.575856807676413], [-70.75949222219916, -28.586472885024364], [-70.74523925768463, -28.586485414498352], [-70.73718314429478, -28.575882794029614], [-70.74337829141827, -28.565267056572985], [-70.75762994261716, -28.565253599617748]]]}, "properties": {"h3_id": "87b21d872ffffff", "res": 7, "alerta": "AMARILLO", "pct_rojo": 0.0, "horas_br": 1, "p_ign": 0.372}}, {"type": "Feature", "geometry": {"type": "Polygon", "coordinates": [[[-71.0720671016659, -28.490176994671298], [-71.08015352141796, -28.500780809162755], [-71.07395781181157, -28.511434334067943], [-71.05967604515156, -28.51148370858431], [-71.05159130180519, -28.50088046818658], [-71.05778664827375, -28.49022727925492], [-71.0720671016659, -28.490176994671298]]]}, "properties": {"h3_id": "87b21dd6cffffff", "res": 7, "alerta": "AMARILLO", "pct_rojo": 0.0, "horas_br": 1, "p_ign": 0.217}}, {"type": "Feature", "geometry": {"type": "Polygon", "coordinates": [[[-71.16766788193382, -32.11915366509451], [-71.17587582514074, -32.129375926649814], [-71.16959371677855, -32.13947381405639], [-71.1551040295882, -32.13934921183942], [-71.14689780131438, -32.129127508195474], [-71.15317954483818, -32.11902984893041], [-71.16766788193382, -32.11915366509451]]]}, "properties": {"h3_id": "87b2e23a2ffffff", "res": 7, "alerta": "AMARILLO", "pct_rojo": 0.0, "horas_br": 1, "p_ign": 0.4}}, {"type": "Feature", "geometry": {"type": "Polygon", "coordinates": [[[-71.25364848803996, -31.651135110322915], [-71.26184987207486, -31.661408229219646], [-71.2555788050404, -31.67158986672139], [-71.24110670943647, -31.6714981467041], [-71.23290702662354, -31.661225586538354], [-71.23917773773391, -31.651044187733113], [-71.25364848803996, -31.651135110322915]]]}, "properties": {"h3_id": "87b2e2885ffffff", "res": 7, "alerta": "AMARILLO", "pct_rojo": 0.0, "horas_br": 1, "p_ign": 0.4}}, {"type": "Feature", "geometry": {"type": "Polygon", "coordinates": [[[-70.75436607222953, -31.871221773737705], [-70.76252525949693, -31.88148362509022], [-70.75625155121395, -31.891586821505047], [-70.74181905566876, -31.891427926335243], [-70.73366161552292, -31.88116665205892], [-70.73993492334988, -31.871063695949708], [-70.75436607222953, -31.871221773737705]]]}, "properties": {"h3_id": "87b2e2a29ffffff", "res": 7, "alerta": "AMARILLO", "pct_rojo": 0.0, "horas_br": 1, "p_ign": 0.4}}, {"type": "Feature", "geometry": {"type": "Polygon", "coordinates": [[[-71.62051505003153, -31.17024295700728], [-71.62873663119649, -31.180559418668402], [-71.62247577851369, -31.19084930175452], [-71.6079936664084, -31.19082247802402], [-71.59977374806195, -31.180506563799963], [-71.6060342785398, -31.17021692594455], [-71.62051505003153, -31.17024295700728]]]}, "properties": {"h3_id": "87b2e64ebffffff", "res": 7, "alerta": "AMARILLO", "pct_rojo": 0.0, "horas_br": 1, "p_ign": 0.472}}, {"type": "Feature", "geometry": {"type": "Polygon", "coordinates": [[[-71.61659460299506, -31.129013893383117], [-71.62481450714688, -31.13933501891049], [-71.61855465821937, -31.149631153136838], [-71.60407522712818, -31.149605915526646], [-71.59585698561425, -31.13928533785203], [-71.60211651209147, -31.128989450010074], [-71.61659460299506, -31.129013893383117]]]}, "properties": {"h3_id": "87b2e64ecffffff", "res": 7, "alerta": "AMARILLO", "pct_rojo": 0.0, "horas_br": 1, "p_ign": 0.472}}, {"type": "Feature", "geometry": {"type": "Polygon", "coordinates": [[[-71.26851596363272, -30.652858776879253], [-71.27668736850887, -30.663241056440167], [-71.27044026094907, -30.673583376290903], [-71.25602209995647, -30.673543151241116], [-71.2478523820052, -30.663161436233143], [-71.254099137668, -30.652819381797617], [-71.26851596363272, -30.652858776879253]]]}, "properties": {"h3_id": "87b2e6896ffffff", "res": 7, "alerta": "AMARILLO", "pct_rojo": 0.0, "horas_br": 1, "p_ign": 0.472}}, {"type": "Feature", "geometry": {"type": "Polygon", "coordinates": [[[-71.13499400457869, -30.610996884743372], [-71.14315110103477, -30.62138706080591], [-71.13690563097143, -30.63172468528692], [-71.12250342746732, -30.631671864873447], [-71.11434802888996, -30.621282259026426], [-71.12059313548689, -30.610944903452896], [-71.13499400457869, -30.610996884743372]]]}, "properties": {"h3_id": "87b2e68a1ffffff", "res": 7, "alerta": "AMARILLO", "pct_rojo": 0.0, "horas_br": 1, "p_ign": 0.372}}, {"type": "Feature", "geometry": {"type": "Polygon", "coordinates": [[[-71.15372826152961, -30.579968281468428], [-71.16188622266641, -30.590361279950574], [-71.15564139701958, -30.600705357753796], [-71.14123897152847, -30.600656167678434], [-71.13308270626155, -30.590263738780326], [-71.13932717016458, -30.57991993044914], [-71.15372826152961, -30.579968281468428]]]}, "properties": {"h3_id": "87b2e68a4ffffff", "res": 7, "alerta": "AMARILLO", "pct_rojo": 0.0, "horas_br": 1, "p_ign": 0.405}}, {"type": "Feature", "geometry": {"type": "Polygon", "coordinates": [[[-71.13308270626155, -30.590263738780326], [-71.14123897152847, -30.600656167678434], [-71.13499400457869, -30.610996884743372], [-71.12059313548689, -30.610944903452896], [-71.11243856799429, -30.60055304494131], [-71.11868317136819, -30.590212597409252], [-71.13308270626155, -30.590263738780326]]]}, "properties": {"h3_id": "87b2e68a5ffffff", "res": 7, "alerta": "AMARILLO", "pct_rojo": 0.0, "horas_br": 1, "p_ign": 0.472}}, {"type": "Feature", "geometry": {"type": "Polygon", "coordinates": [[[-71.17629020099527, -30.59040767876379], [-71.18445068749183, -30.600798992852496], [-71.17820550204443, -30.611143339440176], [-71.16380018944932, -30.611096103230295], [-71.15564139701958, -30.600705357753796], [-71.16188622266641, -30.590361279950574], [-71.17629020099527, -30.59040767876379]]]}, "properties": {"h3_id": "87b2e68a6ffffff", "res": 7, "alerta": "AMARILLO", "pct_rojo": 0.0, "horas_br": 1, "p_ign": 0.405}}, {"type": "Feature", "geometry": {"type": "Polygon", "coordinates": [[[-71.11625781758049, -30.642006127173207], [-71.12441404738966, -30.65239347824537], [-71.11816793414603, -30.662724645959983], [-71.10376595583159, -30.662668194335147], [-71.09561142590951, -30.652281414106383], [-71.10185717396384, -30.641950514734567], [-71.11625781758049, -30.642006127173207]]]}, "properties": {"h3_id": "87b2e68a8ffffff", "res": 7, "alerta": "AMARILLO", "pct_rojo": 0.0, "horas_br": 1, "p_ign": 0.472}}, {"type": "Feature", "geometry": {"type": "Polygon", "coordinates": [[[-71.09561142590951, -30.652281414106383], [-71.10376595583159, -30.662668194335147], [-71.09751970424443, -30.67299599843699], [-71.08311928930571, -30.67293675398469], [-71.07496646117305, -30.66255054539954], [-71.08121234573908, -30.65222300969854], [-71.09561142590951, -30.652281414106383]]]}, "properties": {"h3_id": "87b2e68a9ffffff", "res": 7, "alerta": "AMARILLO", "pct_rojo": 0.0, "horas_br": 1, "p_ign": 0.372}}, {"type": "Feature", "geometry": {"type": "Polygon", "coordinates": [[[-71.13690563097143, -30.63172468528692], [-71.14506355876375, -30.64211260640203], [-71.13881758552006, -30.652447136985188], [-71.12441404738966, -30.65239347824537], [-71.11625781758049, -30.642006127173207], [-71.12250342746732, -30.631671864873447], [-71.13690563097143, -30.63172468528692]]]}, "properties": {"h3_id": "87b2e68aeffffff", "res": 7, "alerta": "AMARILLO", "pct_rojo": 0.0, "horas_br": 1, "p_ign": 0.405}}, {"type": "Feature", "geometry": {"type": "Polygon", "coordinates": [[[-71.22143030134417, -30.61127555002853], [-71.22959583388877, -30.621663485564508], [-71.22334993467709, -30.63200836765826], [-71.20893885837697, -30.631965046882417], [-71.20077501628406, -30.62157767801532], [-71.20702055958698, -30.611233063330793], [-71.22143030134417, -30.61127555002853]]]}, "properties": {"h3_id": "87b2e68b0ffffff", "res": 7, "alerta": "AMARILLO", "pct_rojo": 0.0, "horas_br": 1, "p_ign": 0.372}}, {"type": "Feature", "geometry": {"type": "Polygon", "coordinates": [[[-71.20077501628406, -30.62157767801532], [-71.20893885837697, -30.631965046882417], [-71.20269281235903, -30.64230656842858], [-71.18828328154024, -30.64226045370906], [-71.18012113181052, -30.63187365231116], [-71.1863668200841, -30.62153239823914], [-71.20077501628406, -30.62157767801532]]]}, "properties": {"h3_id": "87b2e68b1ffffff", "res": 7, "alerta": "AMARILLO", "pct_rojo": 0.0, "horas_br": 1, "p_ign": 0.372}}, {"type": "Feature", "geometry": {"type": "Polygon", "coordinates": [[[-71.24400845209962, -30.621704012355995], [-71.25217650532508, -30.632090253735807], [-71.24593025215314, -30.642435402551126], [-71.23151629926295, -30.642394043340666], [-71.22334993467709, -30.63200836765826], [-71.22959583388877, -30.621663485564508], [-71.24400845209962, -30.621704012355995]]]}, "properties": {"h3_id": "87b2e68b2ffffff", "res": 7, "alerta": "AMARILLO", "pct_rojo": 0.0, "horas_br": 1, "p_ign": 0.372}}, {"type": "Feature", "geometry": {"type": "Polygon", "coordinates": [[[-71.22334993467709, -30.63200836765826], [-71.23151629926295, -30.642394043340666], [-71.22526989744803, -30.652735831674672], [-71.21085748639146, -30.652691677614], [-71.20269281235903, -30.64230656842858], [-71.20893885837697, -30.631965046882417], [-71.22334993467709, -30.63200836765826]]]}, "properties": {"h3_id": "87b2e68b3ffffff", "res": 7, "alerta": "AMARILLO", "pct_rojo": 0.0, "horas_br": 1, "p_ign": 0.472}}, {"type": "Feature", "geometry": {"type": "Polygon", "coordinates": [[[-71.21951099736886, -30.59053738221259], [-71.22767569801911, -30.600927575491287], [-71.22143030134417, -30.61127555002853], [-71.20702055958698, -30.611233063330793], [-71.19885754928657, -30.60084343689133], [-71.20510258994105, -30.590495730386003], [-71.21951099736886, -30.59053738221259]]]}, "properties": {"h3_id": "87b2e68b4ffffff", "res": 7, "alerta": "AMARILLO", "pct_rojo": 0.0, "horas_br": 1, "p_ign": 0.322}}, {"type": "Feature", "geometry": {"type": "Polygon", "coordinates": [[[-71.19885754928657, -30.60084343689133], [-71.20702055958698, -30.611233063330793], [-71.20077501628406, -30.62157767801532], [-71.1863668200841, -30.62153239823914], [-71.17820550204443, -30.611143339440176], [-71.18445068749183, -30.600798992852496], [-71.19885754928657, -30.60084343689133]]]}, "properties": {"h3_id": "87b2e68b5ffffff", "res": 7, "alerta": "AMARILLO", "pct_rojo": 0.0, "horas_br": 1, "p_ign": 0.372}}, {"type": "Feature", "geometry": {"type": "Polygon", "coordinates": [[[-71.24208698176403, -30.600967269071504], [-71.25025420284705, -30.611355770475843], [-71.24400845209962, -30.621704012355995], [-71.22959583388877, -30.621663485564508], [-71.22143030134417, -30.61127555002853], [-71.22767569801911, -30.600927575491287], [-71.24208698176403, -30.600967269071504]]]}, "properties": {"h3_id": "87b2e68b6ffffff", "res": 7, "alerta": "AMARILLO", "pct_rojo": 0.0, "horas_br": 1, "p_ign": 0.372}}, {"type": "Feature", "geometry": {"type": "Polygon", "coordinates": [[[-71.03368083335052, -30.68307033835634], [-71.04183025220452, -30.693455401254425], [-71.03558359552316, -30.703773110091458], [-71.0211878920506, -30.70370548753913], [-71.01304018068241, -30.693320998684086], [-71.0192864648513, -30.683003558413738], [-71.03368083335052, -30.68307033835634]]]}, "properties": {"h3_id": "87b2e68e2ffffff", "res": 7, "alerta": "AMARILLO", "pct_rojo": 0.0, "horas_br": 1, "p_ign": 0.472}}, {"type": "Feature", "geometry": {"type": "Polygon", "coordinates": [[[-71.05622752972033, -30.693520231174137], [-71.06437948522517, -30.703903610961877], [-71.05813245796872, -30.714221587688833], [-71.0437338453324, -30.714155916813546], [-71.03558359552316, -30.703773110091458], [-71.04183025220452, -30.693455401254425], [-71.05622752972033, -30.693520231174137]]]}, "properties": {"h3_id": "87b2e68f1ffffff", "res": 7, "alerta": "AMARILLO", "pct_rojo": 0.0, "horas_br": 1, "p_ign": 0.372}}, {"type": "Feature", "geometry": {"type": "Polygon", "coordinates": [[[-71.07496646117305, -30.66255054539954], [-71.08311928930571, -30.67293675398469], [-71.07687290103128, -30.683261193733433], [-71.06247405302608, -30.683199156514966], [-71.05432292858335, -30.67281352037344], [-71.06056894800555, -30.662489349082207], [-71.07496646117305, -30.66255054539954]]]}, "properties": {"h3_id": "87b2e68f4ffffff", "res": 7, "alerta": "AMARILLO", "pct_rojo": 0.0, "horas_br": 1, "p_ign": 0.372}}, {"type": "Feature", "geometry": {"type": "Polygon", "coordinates": [[[-71.05432292858335, -30.67281352037344], [-71.06247405302608, -30.683199156514966], [-71.05622752972033, -30.693520231174137], [-71.04183025220452, -30.693455401254425], [-71.03368083335052, -30.68307033835634], [-71.03992698597361, -30.672749532209956], [-71.05432292858335, -30.67281352037344]]]}, "properties": {"h3_id": "87b2e68f5ffffff", "res": 7, "alerta": "AMARILLO", "pct_rojo": 0.0, "horas_br": 1, "p_ign": 0.372}}, {"type": "Feature", "geometry": {"type": "Polygon", "coordinates": [[[-71.16863228236122, -30.5074116267912], [-71.17678944415489, -30.517811940853772], [-71.17054626934588, -30.52816864427726], [-71.15614629253415, -30.528124762420124], [-71.14799082439451, -30.5177250176371], [-71.15423363896144, -30.507368585507344], [-71.16863228236122, -30.5074116267912]]]}, "properties": {"h3_id": "87b2e6980ffffff", "res": 7, "alerta": "AMARILLO", "pct_rojo": 0.0, "horas_br": 1, "p_ign": 0.472}}, {"type": "Feature", "geometry": {"type": "Polygon", "coordinates": [[[-71.14799082439451, -30.5177250176371], [-71.15614629253415, -30.528124762420124], [-71.1499029752973, -30.53847810796185], [-71.13550455154328, -30.53843143744017], [-71.12735077896203, -30.528032262742176], [-71.13359373412555, -30.517679188556507], [-71.14799082439451, -30.5177250176371]]]}, "properties": {"h3_id": "87b2e6981ffffff", "res": 7, "alerta": "AMARILLO", "pct_rojo": 0.0, "horas_br": 1, "p_ign": 0.472}}, {"type": "Feature", "geometry": {"type": "Polygon", "coordinates": [[[-71.17054626934588, -30.52816864427726], [-71.17870426209493, -30.538566711531264], [-71.17246058472625, -30.54892032773746], [-71.15805927428906, -30.54887560610084], [-71.1499029752973, -30.53847810796185], [-71.15614629253415, -30.528124762420124], [-71.17054626934588, -30.52816864427726]]]}, "properties": {"h3_id": "87b2e6983ffffff", "res": 7, "alerta": "AMARILLO", "pct_rojo": 0.0, "horas_br": 1, "p_ign": 0.472}}, {"type": "Feature", "geometry": {"type": "Polygon", "coordinates": [[[-71.1460790015271, -30.49696659620799], [-71.15423363896144, -30.507368585507344], [-71.14799082439451, -30.5177250176371], [-71.13359373412555, -30.517679188556507], [-71.12544079214565, -30.50727776950609], [-71.13168324452957, -30.496921609363], [-71.1460790015271, -30.49696659620799]]]}, "properties": {"h3_id": "87b2e6985ffffff", "res": 7, "alerta": "AMARILLO", "pct_rojo": 0.0, "horas_br": 1, "p_ign": 0.472}}, {"type": "Feature", "geometry": {"type": "Polygon", "coordinates": [[[-71.12735077896203, -30.528032262742176], [-71.13550455154328, -30.53843143744017], [-71.12926109353336, -30.548781424335537], [-71.11486422639545, -30.548731965191596], [-71.1067121512751, -30.53833336138393], [-71.11295524538117, -30.527983645905515], [-71.12735077896203, -30.528032262742176]]]}, "properties": {"h3_id": "87b2e698cffffff", "res": 7, "alerta": "AMARILLO", "pct_rojo": 0.0, "horas_br": 1, "p_ign": 0.472}}, {"type": "Feature", "geometry": {"type": "Polygon", "coordinates": [[[-71.19502360220254, -30.559358916240352], [-71.20318494935879, -30.569753051482294], [-71.1969404112862, -30.580103848487063], [-71.1825348836831, -30.580060240979325], [-71.17437522858263, -30.569666673715833], [-71.18061940857758, -30.559316146057252], [-71.19502360220254, -30.559358916240352]]]}, "properties": {"h3_id": "87b2e6998ffffff", "res": 7, "alerta": "AMARILLO", "pct_rojo": 0.0, "horas_br": 1, "p_ign": 0.333}}, {"type": "Feature", "geometry": {"type": "Polygon", "coordinates": [[[-71.17437522858263, -30.569666673715833], [-71.1825348836831, -30.580060240979325], [-71.17629020099527, -30.59040767876379], [-71.16188622266641, -30.590361279950574], [-71.15372826152961, -30.579968281468428], [-71.1599725843064, -30.569621113093778], [-71.17437522858263, -30.569666673715833]]]}, "properties": {"h3_id": "87b2e6999ffffff", "res": 7, "alerta": "AMARILLO", "pct_rojo": 0.0, "horas_br": 1, "p_ign": 0.372}}, {"type": "Feature", "geometry": {"type": "Polygon", "coordinates": [[[-71.21759202267062, -30.56979386764491], [-71.22575589157348, -30.580186316551924], [-71.21951099736886, -30.59053738221259], [-71.20510258994105, -30.590495730386003], [-71.1969404112862, -30.580103848487063], [-71.20318494935879, -30.569753051482294], [-71.21759202267062, -30.56979386764491]]]}, "properties": {"h3_id": "87b2e699affffff", "res": 7, "alerta": "AMARILLO", "pct_rojo": 0.0, "horas_br": 1, "p_ign": 0.372}}, {"type": "Feature", "geometry": {"type": "Polygon", "coordinates": [[[-71.1969404112862, -30.580103848487063], [-71.20510258994105, -30.590495730386003], [-71.19885754928657, -30.60084343689133], [-71.18445068749183, -30.600798992852496], [-71.17629020099527, -30.59040767876379], [-71.1825348836831, -30.580060240979325], [-71.1969404112862, -30.580103848487063]]]}, "properties": {"h3_id": "87b2e699bffffff", "res": 7, "alerta": "AMARILLO", "pct_rojo": 0.0, "horas_br": 1, "p_ign": 0.405}}, {"type": "Feature", "geometry": {"type": "Polygon", "coordinates": [[[-71.19310712195526, -30.538608643596387], [-71.2012676377598, -30.54900503006131], [-71.19502360220254, -30.559358916240352], [-71.18061940857758, -30.559316146057252], [-71.17246058472625, -30.54892032773746], [-71.17870426209493, -30.538566711531264], [-71.19310712195526, -30.538608643596387]]]}, "properties": {"h3_id": "87b2e699cffffff", "res": 7, "alerta": "AMARILLO", "pct_rojo": 0.0, "horas_br": 1, "p_ign": 0.472}}, {"type": "Feature", "geometry": {"type": "Polygon", "coordinates": [[[-71.2156733771691, -30.54904500976736], [-71.22383641447146, -30.55943971218468], [-71.21759202267062, -30.56979386764491], [-71.20318494935879, -30.569753051482294], [-71.19502360220254, -30.559358916240352], [-71.2012676377598, -30.54900503006131], [-71.2156733771691, -30.54904500976736]]]}, "properties": {"h3_id": "87b2e699effffff", "res": 7, "alerta": "AMARILLO", "pct_rojo": 0.0, "horas_br": 1, "p_ign": 0.472}}, {"type": "Feature", "geometry": {"type": "Polygon", "coordinates": [[[-71.12544079214565, -30.50727776950609], [-71.13359373412555, -30.517679188556507], [-71.12735077896203, -30.528032262742176], [-71.11295524538117, -30.527983645905515], [-71.10480400075767, -30.51758279791026], [-71.11104659190818, -30.507229995772178], [-71.12544079214565, -30.50727776950609]]]}, "properties": {"h3_id": "87b2e69aaffffff", "res": 7, "alerta": "AMARILLO", "pct_rojo": 0.0, "horas_br": 1, "p_ign": 0.472}}, {"type": "Feature", "geometry": {"type": "Polygon", "coordinates": [[[-70.5856368845303, -30.731889784439403], [-70.59374342728947, -30.742280567921373], [-70.58749841083159, -30.752552284564366], [-70.57314726271692, -30.7524329433834], [-70.5650424659099, -30.742042752215742], [-70.57128707082352, -30.731771309989895], [-70.5856368845303, -30.731889784439403]]]}, "properties": {"h3_id": "87b2e6b66ffffff", "res": 7, "alerta": "AMARILLO", "pct_rojo": 0.0, "horas_br": 1, "p_ign": 0.4}}, {"type": "Feature", "geometry": {"type": "Polygon", "coordinates": [[[-70.84608163927663, -30.75443192090893], [-70.85421479285577, -30.764814041106327], [-70.84796751587265, -30.775104528509956], [-70.83358747391568, -30.775012626176846], [-70.82545604470414, -30.764631087395088], [-70.83170293263532, -30.75434086960603], [-70.84608163927663, -30.75443192090893]]]}, "properties": {"h3_id": "87b2e6ba1ffffff", "res": 7, "alerta": "AMARILLO", "pct_rojo": 0.0, "horas_br": 1, "p_ign": 0.4}}, {"type": "Feature", "geometry": {"type": "Polygon", "coordinates": [[[-71.5075775215889, -30.663649023252923], [-71.51577236031528, -30.674023818259265], [-71.50952401597448, -30.684384507920424], [-71.49508116336798, -30.684370141754297], [-71.48688799092825, -30.673995901502128], [-71.4931360043505, -30.663635472737653], [-71.5075775215889, -30.663649023252923]]]}, "properties": {"h3_id": "87b2e6c02ffffff", "res": 7, "alerta": "AMARILLO", "pct_rojo": 0.0, "horas_br": 1, "p_ign": 0.472}}, {"type": "Feature", "geometry": {"type": "Polygon", "coordinates": [[[-71.48299967501826, -30.632516634752765], [-71.49119117883156, -30.642895430401285], [-71.48494366629738, -30.653258953737026], [-71.47050498249678, -30.653243419298082], [-71.46231514672178, -30.642865179542472], [-71.46856232625184, -30.632501918408618], [-71.48299967501826, -30.632516634752765]]]}, "properties": {"h3_id": "87b2e6c04ffffff", "res": 7, "alerta": "AMARILLO", "pct_rojo": 0.0, "horas_br": 1, "p_ign": 0.472}}, {"type": "Feature", "geometry": {"type": "Polygon", "coordinates": [[[-71.50563136091414, -30.642908164483174], [-71.51382536516067, -30.653285238409953], [-71.5075775215889, -30.663649023252923], [-71.4931360043505, -30.663635472737653], [-71.48494366629738, -30.653258953737026], [-71.49119117883156, -30.642895430401285], [-71.50563136091414, -30.642908164483174]]]}, "properties": {"h3_id": "87b2e6c06ffffff", "res": 7, "alerta": "AMARILLO", "pct_rojo": 0.0, "horas_br": 1, "p_ign": 0.472}}, {"type": "Feature", "geometry": {"type": "Polygon", "coordinates": [[[-71.44551292488651, -30.69467118292022], [-71.45370275893646, -30.70504431128111], [-71.44745390948307, -30.71539492823877], [-71.43301556198504, -30.71537215577033], [-71.4248274000349, -30.704999584546186], [-71.43107591302605, -30.69464922872939], [-71.44551292488651, -30.69467118292022]]]}, "properties": {"h3_id": "87b2e6c08ffffff", "res": 7, "alerta": "AMARILLO", "pct_rojo": 0.0, "horas_br": 1, "p_ign": 0.472}}, {"type": "Feature", "geometry": {"type": "Polygon", "coordinates": [[[-71.42288858517902, -30.68427437927846], [-71.43107591302605, -30.69464922872939], [-71.4248274000349, -30.704999584546186], [-71.41039189716614, -30.704974829157653], [-71.4022062432575, -30.694600537813052], [-71.40845441782274, -30.68425044382633], [-71.42288858517902, -30.68427437927846]]]}, "properties": {"h3_id": "87b2e6c0dffffff", "res": 7, "alerta": "AMARILLO", "pct_rojo": 0.0, "horas_br": 1, "p_ign": 0.472}}, {"type": "Feature", "geometry": {"type": "Polygon", "coordinates": [[[-71.52826837698635, -30.653295987685027], [-71.53646488005825, -30.663671336650943], [-71.5302167074171, -30.67403538230644], [-71.51577236031528, -30.674023818259265], [-71.5075775215889, -30.663649023252923], [-71.51382536516067, -30.653285238409953], [-71.52826837698635, -30.653295987685027]]]}, "properties": {"h3_id": "87b2e6c15ffffff", "res": 7, "alerta": "AMARILLO", "pct_rojo": 0.0, "horas_br": 1, "p_ign": 0.372}}, {"type": "Feature", "geometry": {"type": "Polygon", "coordinates": [[[-71.43775231445538, -30.611722478850847], [-71.44593881259337, -30.62210470821896], [-71.4396919680322, -30.632467706456243], [-71.42525896180858, -30.632448211809955], [-71.41707413538964, -30.622066540268673], [-71.42332064301891, -30.611703805622582], [-71.43775231445538, -30.611722478850847]]]}, "properties": {"h3_id": "87b2e6c21ffffff", "res": 7, "alerta": "AMARILLO", "pct_rojo": 0.0, "horas_br": 1, "p_ign": 0.472}}, {"type": "Feature", "geometry": {"type": "Polygon", "coordinates": [[[-71.46037332447594, -30.62212140427911], [-71.46856232625184, -30.632501918408618], [-71.46231514672178, -30.642865179542472], [-71.4478792999279, -30.642847663725956], [-71.4396919680322, -30.632467706456243], [-71.44593881259337, -30.62210470821896], [-71.46037332447594, -30.62212140427911]]]}, "properties": {"h3_id": "87b2e6c23ffffff", "res": 7, "alerta": "AMARILLO", "pct_rojo": 0.0, "horas_br": 1, "p_ign": 0.472}}, {"type": "Feature", "geometry": {"type": "Polygon", "coordinates": [[[-71.4396919680322, -30.632467706456243], [-71.4478792999279, -30.642847663725956], [-71.44163195424223, -30.653207568617045], [-71.42719761301893, -30.653187253337506], [-71.4190119529375, -30.64280785372442], [-71.42525896180858, -30.632448211809955], [-71.4396919680322, -30.632467706456243]]]}, "properties": {"h3_id": "87b2e6c2effffff", "res": 7, "alerta": "AMARILLO", "pct_rojo": 0.0, "horas_br": 1, "p_ign": 0.472}}, {"type": "Feature", "geometry": {"type": "Polygon", "coordinates": [[[-71.33823621314917, -30.704827151376048], [-71.34641600008834, -30.715202039063204], [-71.34016734645871, -30.72554205288884], [-71.3257392513538, -30.725506916360246], [-71.31756114597239, -30.71513259013458], [-71.32380945368301, -30.704792839051613], [-71.33823621314917, -30.704827151376048]]]}, "properties": {"h3_id": "87b2e6c44ffffff", "res": 7, "alerta": "AMARILLO", "pct_rojo": 0.0, "horas_br": 1, "p_ign": 0.372}}, {"type": "Feature", "geometry": {"type": "Polygon", "coordinates": [[[-71.36084561864244, -30.715234375363263], [-71.36902791888008, -30.725607548111615], [-71.36277892128992, -30.735947823994813], [-71.34834796696707, -30.735914665147682], [-71.34016734645871, -30.72554205288884], [-71.34641600008834, -30.715202039063204], [-71.36084561864244, -30.715234375363263]]]}, "properties": {"h3_id": "87b2e6c46ffffff", "res": 7, "alerta": "AMARILLO", "pct_rojo": 0.0, "horas_br": 1, "p_ign": 0.472}}, {"type": "Feature", "geometry": {"type": "Polygon", "coordinates": [[[-71.2800667027377, -30.77712586300156], [-71.28824310592312, -30.787494512051698], [-71.2819929827019, -30.79781823453842], [-71.2675668070585, -30.79777304631984], [-71.25939209139992, -30.787404960751832], [-71.2656418634034, -30.77708149999573], [-71.2800667027377, -30.77712586300156]]]}, "properties": {"h3_id": "87b2e6c49ffffff", "res": 7, "alerta": "AMARILLO", "pct_rojo": 0.0, "horas_br": 1, "p_ign": 0.4}}, {"type": "Feature", "geometry": {"type": "Polygon", "coordinates": [[[-71.42676654748894, -30.725719413599716], [-71.4349555436892, -30.73608970450471], [-71.42870602762237, -30.746433863042228], [-71.41426785309027, -30.746407470140262], [-71.40608053101987, -30.73603773698855], [-71.41232970889493, -30.725693839061147], [-71.42676654748894, -30.725719413599716]]]}, "properties": {"h3_id": "87b2e6c56ffffff", "res": 7, "alerta": "AMARILLO", "pct_rojo": 0.0, "horas_br": 1, "p_ign": 0.472}}, {"type": "Feature", "geometry": {"type": "Polygon", "coordinates": [[[-71.29303352918903, -30.684001646037938], [-71.30120828478572, -30.69437995387556], [-71.29496032495086, -30.704719441530802], [-71.28053795889582, -30.704680357311172], [-71.27236488850495, -30.694302612879447], [-71.27861249850906, -30.683963389337013], [-71.29303352918903, -30.684001646037938]]]}, "properties": {"h3_id": "87b2e6c61ffffff", "res": 7, "alerta": "AMARILLO", "pct_rojo": 0.0, "horas_br": 1, "p_ign": 0.472}}, {"type": "Feature", "geometry": {"type": "Polygon", "coordinates": [[[-71.33630541116005, -30.684106878375957], [-71.34448436467711, -30.694484039398002], [-71.33823621314917, -30.704827151376048], [-71.32380945368301, -30.704792839051613], [-71.31563218162536, -30.69441623966749], [-71.32187998711947, -30.68407339104548], [-71.33630541116005, -30.684106878375957]]]}, "properties": {"h3_id": "87b2e6c62ffffff", "res": 7, "alerta": "AMARILLO", "pct_rojo": 0.0, "horas_br": 1, "p_ign": 0.472}}, {"type": "Feature", "geometry": {"type": "Polygon", "coordinates": [[[-71.31563218162536, -30.69441623966749], [-71.32380945368301, -30.704792839051613], [-71.31756114597239, -30.71513259013458], [-71.3031359136252, -30.715095478481278], [-71.29496032495086, -30.704719441530802], [-71.30120828478572, -30.69437995387556], [-71.31563218162536, -30.69441623966749]]]}, "properties": {"h3_id": "87b2e6c63ffffff", "res": 7, "alerta": "AMARILLO", "pct_rojo": 0.0, "horas_br": 1, "p_ign": 0.472}}, {"type": "Feature", "geometry": {"type": "Polygon", "coordinates": [[[-71.31177524573117, -30.652967436333487], [-71.31995085158238, -30.663348575744518], [-71.31370354823855, -30.67369452059839], [-71.29928098669319, -30.67365906145837], [-71.29110706402713, -30.66327848483112], [-71.29735401926686, -30.65293280463571], [-71.31177524573117, -30.652967436333487]]]}, "properties": {"h3_id": "87b2e6c64ffffff", "res": 7, "alerta": "AMARILLO", "pct_rojo": 0.0, "horas_br": 1, "p_ign": 0.472}}, {"type": "Feature", "geometry": {"type": "Polygon", "coordinates": [[[-71.29688745139336, -30.725431867907457], [-71.30506387329241, -30.735805631876854], [-71.29881490859731, -30.746138921773102], [-71.28438987115192, -30.74609818489082], [-71.27621513465805, -30.735724983972265], [-71.28246374974987, -30.725391956960653], [-71.29688745139336, -30.725431867907457]]]}, "properties": {"h3_id": "87b2e6c6affffff", "res": 7, "alerta": "AMARILLO", "pct_rojo": 0.0, "horas_br": 1, "p_ign": 0.372}}, {"type": "Feature", "geometry": {"type": "Polygon", "coordinates": [[[-71.4778617192427, -30.808621835334378], [-71.48605823229869, -30.81898180470728], [-71.47980654134636, -30.82931717311331], [-71.46535867078491, -30.829292314796994], [-71.45716382845887, -30.81893290069144], [-71.46341518550622, -30.808597789710397], [-71.4778617192427, -30.808621835334378]]]}, "properties": {"h3_id": "87b2e6cc1ffffff", "res": 7, "alerta": "AMARILLO", "pct_rojo": 0.0, "horas_br": 1, "p_ign": 0.472}}, {"type": "Feature", "geometry": {"type": "Polygon", "coordinates": [[[-71.45260936379465, -30.539092688545097], [-71.46079503104153, -30.54948227907217], [-71.4545498548819, -30.559857902796924], [-71.44011934645884, -30.559843670707842], [-71.4319353487135, -30.54945463770848], [-71.43818018943342, -30.539079279346296], [-71.45260936379465, -30.539092688545097]]]}, "properties": {"h3_id": "87b2e6d0effffff", "res": 7, "alerta": "AMARILLO", "pct_rojo": 0.0, "horas_br": 1, "p_ign": 0.372}}, {"type": "Feature", "geometry": {"type": "Polygon", "coordinates": [[[-71.49785005369726, -30.559891056898707], [-71.50604072149181, -30.570277225450543], [-71.4997948803417, -30.580653377800374], [-71.48535870245311, -30.580643097711683], [-71.47716970047874, -30.570257484758688], [-71.48341521011567, -30.559881596371376], [-71.49785005369726, -30.559891056898707]]]}, "properties": {"h3_id": "87b2e6d18ffffff", "res": 7, "alerta": "AMARILLO", "pct_rojo": 0.0, "horas_br": 1, "p_ign": 0.472}}, {"type": "Feature", "geometry": {"type": "Polygon", "coordinates": [[[-71.47716970047874, -30.570257484758688], [-71.48535870245311, -30.580643097711683], [-71.47911269219014, -30.5910158968288], [-71.4646780128551, -30.591002819023252], [-71.45649067863714, -30.58061776246817], [-71.46273635554098, -30.5702452273965], [-71.47716970047874, -30.570257484758688]]]}, "properties": {"h3_id": "87b2e6d19ffffff", "res": 7, "alerta": "AMARILLO", "pct_rojo": 0.0, "horas_br": 1, "p_ign": 0.472}}, {"type": "Feature", "geometry": {"type": "Polygon", "coordinates": [[[-71.4997948803417, -30.580653377800374], [-71.5079863820292, -30.591037275861655], [-71.50174004037183, -30.60141033832547], [-71.4873025279641, -30.601399239457102], [-71.47911269219014, -30.5910158968288], [-71.48535870245311, -30.580643097711683], [-71.4997948803417, -30.580653377800374]]]}, "properties": {"h3_id": "87b2e6d1bffffff", "res": 7, "alerta": "AMARILLO", "pct_rojo": 0.0, "horas_br": 1, "p_ign": 0.372}}, {"type": "Feature", "geometry": {"type": "Polygon", "coordinates": [[[-71.28725512518022, -30.621816078921427], [-71.295427382426, -30.63220118682102], [-71.28918092938441, -30.642549961319936], [-71.27476256881458, -30.642513362030037], [-71.26659199647528, -30.632128818057488], [-71.27283809934552, -30.62178030952342], [-71.28725512518022, -30.621816078921427]]]}, "properties": {"h3_id": "87b2e6d48ffffff", "res": 7, "alerta": "AMARILLO", "pct_rojo": 0.0, "horas_br": 1, "p_ign": 0.422}}, {"type": "Feature", "geometry": {"type": "Polygon", "coordinates": [[[-71.28918092938441, -30.642549961319936], [-71.29735401926686, -30.65293280463571], [-71.29110706402713, -30.66327848483112], [-71.27668736850887, -30.663241056440167], [-71.26851596363272, -30.652858776879253], [-71.27476256881458, -30.642513362030037], [-71.28918092938441, -30.642549961319936]]]}, "properties": {"h3_id": "87b2e6d4bffffff", "res": 7, "alerta": "AMARILLO", "pct_rojo": 0.0, "horas_br": 1, "p_ign": 0.405}}, {"type": "Feature", "geometry": {"type": "Polygon", "coordinates": [[[-71.39252633660669, -30.59091356630134], [-71.40070782268211, -30.601299216413032], [-71.39446165394604, -30.611661686773363], [-71.38003433953186, -30.611638242117397], [-71.37185452884421, -30.601253151767125], [-71.37810035672751, -30.59089094638712], [-71.39252633660669, -30.59091356630134]]]}, "properties": {"h3_id": "87b2e6d50ffffff", "res": 7, "alerta": "AMARILLO", "pct_rojo": 0.0, "horas_br": 1, "p_ign": 0.405}}, {"type": "Feature", "geometry": {"type": "Polygon", "coordinates": [[[-71.41513665011564, -30.601319864259864], [-71.42332064301891, -30.611703805622582], [-71.41707413538964, -30.622066540268673], [-71.40264397329439, -30.62204506934202], [-71.39446165394604, -30.611661686773363], [-71.40070782268211, -30.601299216413032], [-71.41513665011564, -30.601319864259864]]]}, "properties": {"h3_id": "87b2e6d52ffffff", "res": 7, "alerta": "AMARILLO", "pct_rojo": 0.0, "horas_br": 1, "p_ign": 0.372}}, {"type": "Feature", "geometry": {"type": "Polygon", "coordinates": [[[-71.39446165394604, -30.611661686773363], [-71.40264397329439, -30.62204506934202], [-71.39639730319982, -30.63240444758661], [-71.3819686540379, -30.63238017897516], [-71.37378801017393, -30.6219973559989], [-71.38003433953186, -30.611638242117397], [-71.39446165394604, -30.611661686773363]]]}, "properties": {"h3_id": "87b2e6d53ffffff", "res": 7, "alerta": "AMARILLO", "pct_rojo": 0.0, "horas_br": 1, "p_ign": 0.372}}, {"type": "Feature", "geometry": {"type": "Polygon", "coordinates": [[[-71.4131994970345, -30.580567829131766], [-71.42138265656887, -30.590954038205624], [-71.41513665011564, -30.601319864259864], [-71.40070782268211, -30.601299216413032], [-71.39252633660669, -30.59091356630134], [-71.39877200405007, -30.580548005150067], [-71.4131994970345, -30.580567829131766]]]}, "properties": {"h3_id": "87b2e6d56ffffff", "res": 7, "alerta": "AMARILLO", "pct_rojo": 0.0, "horas_br": 1, "p_ign": 0.472}}, {"type": "Feature", "geometry": {"type": "Polygon", "coordinates": [[[-71.35311572404922, -30.63232687117122], [-71.3612946905011, -30.642709133756956], [-71.3550477004599, -30.65306179685529], [-71.34062208793344, -30.653031932929995], [-71.33244480081973, -30.642650231532738], [-71.33869144643928, -30.632297832947962], [-71.35311572404922, -30.63232687117122]]]}, "properties": {"h3_id": "87b2e6d58ffffff", "res": 7, "alerta": "AMARILLO", "pct_rojo": 0.0, "horas_br": 1, "p_ign": 0.472}}, {"type": "Feature", "geometry": {"type": "Polygon", "coordinates": [[[-71.37572182313943, -30.642736200035852], [-71.38390330032661, -30.65311675353087], [-71.37765596782164, -30.663469680452273], [-71.36322750013777, -30.66344179013127], [-71.3550477004599, -30.65306179685529], [-71.3612946905011, -30.642709133756956], [-71.37572182313943, -30.642736200035852]]]}, "properties": {"h3_id": "87b2e6d5affffff", "res": 7, "alerta": "AMARILLO", "pct_rojo": 0.0, "horas_br": 1, "p_ign": 0.472}}, {"type": "Feature", "geometry": {"type": "Polygon", "coordinates": [[[-71.35118407899547, -30.611586584759763], [-71.35936221236824, -30.621971114549538], [-71.35311572404922, -30.63232687117122], [-71.33869144643928, -30.632297832947962], [-71.33051499230683, -30.62191386451756], [-71.33676113608912, -30.611558373026718], [-71.35118407899547, -30.611586584759763]]]}, "properties": {"h3_id": "87b2e6d5cffffff", "res": 7, "alerta": "AMARILLO", "pct_rojo": 0.0, "horas_br": 1, "p_ign": 0.322}}, {"type": "Feature", "geometry": {"type": "Polygon", "coordinates": [[[-71.33051499230683, -30.62191386451756], [-71.33869144643928, -30.632297832947962], [-71.33244480081973, -30.642650231532738], [-71.31802204699089, -30.642618396558763], [-71.30984727402245, -30.63223499028643], [-71.31609357326424, -30.62188285690566], [-71.33051499230683, -30.62191386451756]]]}, "properties": {"h3_id": "87b2e6d5dffffff", "res": 7, "alerta": "AMARILLO", "pct_rojo": 0.0, "horas_br": 1, "p_ign": 0.372}}, {"type": "Feature", "geometry": {"type": "Polygon", "coordinates": [[[-71.24016584106587, -30.580225176128728], [-71.24833223015338, -30.590615935445236], [-71.24208698176403, -30.600967269071504], [-71.22767569801911, -30.600927575491287], [-71.21951099736886, -30.59053738221259], [-71.22575589157348, -30.580186316551924], [-71.24016584106587, -30.580225176128728]]]}, "properties": {"h3_id": "87b2e6d69ffffff", "res": 7, "alerta": "AMARILLO", "pct_rojo": 0.0, "horas_br": 1, "p_ign": 0.472}}, {"type": "Feature", "geometry": {"type": "Polygon", "coordinates": [[[-71.25889942782226, -30.549155457187535], [-71.26706667148349, -30.55954903770338], [-71.26082207515016, -30.56990681937214], [-71.24641058716357, -30.569870752078938], [-71.23824502992466, -30.55947773696623], [-71.24448927379706, -30.549120223819287], [-71.25889942782226, -30.549155457187535]]]}, "properties": {"h3_id": "87b2e6d6cffffff", "res": 7, "alerta": "AMARILLO", "pct_rojo": 0.0, "horas_br": 1, "p_ign": 0.472}}, {"type": "Feature", "geometry": {"type": "Polygon", "coordinates": [[[-71.56770237376786, -30.61181886552033], [-71.57590136494511, -30.622197599451763], [-71.56965404091005, -30.632571447763212], [-71.55520805072906, -30.632566300968634], [-71.54701071991877, -30.622188119576265], [-71.55325771846393, -30.611814532515247], [-71.56770237376786, -30.61181886552033]]]}, "properties": {"h3_id": "87b2e6d8dffffff", "res": 7, "alerta": "AMARILLO", "pct_rojo": 0.0, "horas_br": 1, "p_ign": 0.472}}, {"type": "Feature", "geometry": {"type": "Polygon", "coordinates": [[[-70.1324113542276, -18.8111789864468], [-70.14014003268073, -18.822387546589255], [-70.1341557607683, -18.83409659206149], [-70.12044322411656, -18.83459630781534], [-70.11271618503746, -18.823388169940298], [-70.11870004285403, -18.8116798940855], [-70.1324113542276, -18.8111789864468]]]}, "properties": {"h3_id": "87b3008a8ffffff", "res": 7, "alerta": "AMARILLO", "pct_rojo": 0.0, "horas_br": 1, "p_ign": 0.439}}, {"type": "Feature", "geometry": {"type": "Polygon", "coordinates": [[[-69.53747343994655, -19.940329290824486], [-69.54517133300176, -19.951499997786318], [-69.53917085065612, -19.96305925150142], [-69.525472938702, -19.96344706319507], [-69.51777674111771, -19.952276842924697], [-69.52377675964054, -19.94071832431594], [-69.53747343994655, -19.940329290824486]]]}, "properties": {"h3_id": "87b30144affffff", "res": 7, "alerta": "AMARILLO", "pct_rojo": 0.0, "horas_br": 1, "p_ign": 0.544}}, {"type": "Feature", "geometry": {"type": "Polygon", "coordinates": [[[-69.21752126623099, -20.06283837667295], [-69.22518958280025, -20.074003511646108], [-69.21919052375893, -20.08552475327581], [-69.20552363675414, -20.085880120921882], [-69.19785703996571, -20.07471549089034], [-69.20385561003042, -20.063194988317843], [-69.21752126623099, -20.06283837667295]]]}, "properties": {"h3_id": "87b30176bffffff", "res": 7, "alerta": "AMARILLO", "pct_rojo": 0.0, "horas_br": 1, "p_ign": 0.59}}, {"type": "Feature", "geometry": {"type": "Polygon", "coordinates": [[[-69.76272426199355, -18.824332946118773], [-69.77041640413667, -18.835539470884424], [-69.76443560563088, -18.847217994197987], [-69.75076310757325, -18.847689211230833], [-69.74307263211392, -18.83648312569834], [-69.74905298765262, -18.824805383940376], [-69.76272426199355, -18.824332946118773]]]}, "properties": {"h3_id": "87b305499ffffff", "res": 7, "alerta": "AMARILLO", "pct_rojo": 0.0, "horas_br": 1, "p_ign": 0.439}}, {"type": "Feature", "geometry": {"type": "Polygon", "coordinates": [[[-69.54529591060735, -18.384203844856227], [-69.55295498289975, -18.395420433780714], [-69.54698528775373, -18.407119037180788], [-69.53335697840254, -18.407600241524488], [-69.5256995836155, -18.396384085874274], [-69.53166882030386, -18.38468629264322], [-69.54529591060735, -18.384203844856227]]]}, "properties": {"h3_id": "87b305c8cffffff", "res": 7, "alerta": "AMARILLO", "pct_rojo": 0.0, "horas_br": 1, "p_ign": 0.447}}, {"type": "Feature", "geometry": {"type": "Polygon", "coordinates": [[[-69.50883801887808, -18.16713565628107], [-69.51648793137494, -18.178357047358368], [-69.51052292333061, -18.19007076831085], [-69.49690846302205, -18.190562276253296], [-69.4892602282359, -18.179341312152797], [-69.4952247756786, -18.16762841316866], [-69.50883801887808, -18.16713565628107]]]}, "properties": {"h3_id": "87b305dacffffff", "res": 7, "alerta": "AMARILLO", "pct_rojo": 0.0, "horas_br": 1, "p_ign": 0.447}}, {"type": "Feature", "geometry": {"type": "Polygon", "coordinates": [[[-68.9629984467035, -22.468431790234487], [-68.97070303528913, -22.47949355892578], [-68.96465821989837, -22.490744333481096], [-68.95090933243499, -22.49093270803926], [-68.94320651012228, -22.479871522708997], [-68.94925080862468, -22.468621379518666], [-68.9629984467035, -22.468431790234487]]]}, "properties": {"h3_id": "87b30b5acffffff", "res": 7, "alerta": "ROJO", "pct_rojo": 25.0, "horas_br": 1, "p_ign": 0.477}}, {"type": "Feature", "geometry": {"type": "Polygon", "coordinates": [[[-69.52965724316394, -52.2760639111378], [-69.5237508075045, -52.26422639828992], [-69.5359035035361, -52.254760805747445], [-69.55396441557471, -52.25712991366709], [-69.55987990553339, -52.26896750866946], [-69.54772543079598, -52.27843591423547], [-69.52965724316394, -52.2760639111378]]]}, "properties": {"h3_id": "87cfa4809ffffff", "res": 7, "alerta": "AMARILLO", "pct_rojo": 0.0, "horas_br": 1, "p_ign": 0.456}}, {"type": "Feature", "geometry": {"type": "Polygon", "coordinates": [[[-70.14442358661832, -53.307764619179366], [-70.13816657965408, -53.29588798764039], [-70.15055328050744, -53.28639228438313], [-70.16919866252326, -53.28877036798381], [-70.17546514931456, -53.300647006790314], [-70.16307677614242, -53.3101455553818], [-70.14442358661832, -53.307764619179366]]]}, "properties": {"h3_id": "87df68233ffffff", "res": 7, "alerta": "AMARILLO", "pct_rojo": 0.0, "horas_br": 1, "p_ign": 0.4}}, {"type": "Feature", "geometry": {"type": "Polygon", "coordinates": [[[-70.14366885151702, -53.108271426792285], [-70.13744103404203, -53.09640056766404], [-70.14977053177492, -53.08689233971635], [-70.1683295059773, -53.08925212531271], [-70.17456671582256, -53.10112299141884], [-70.1622355609485, -53.11063406560043], [-70.14366885151702, -53.108271426792285]]]}, "properties": {"h3_id": "87df6825cffffff", "res": 7, "alerta": "AMARILLO", "pct_rojo": 0.0, "horas_br": 1, "p_ign": 0.4}}, {"type": "Feature", "geometry": {"type": "Polygon", "coordinates": [[[-70.37429081274844, -52.59431591858677], [-70.3680593201944, -52.582459487849064], [-70.38022152946189, -52.57288501185185], [-70.39861678063286, -52.57516410421945], [-70.40485743867222, -52.58702051026722], [-70.39269368188533, -52.59659784927741], [-70.37429081274844, -52.59431591858677]]]}, "properties": {"h3_id": "87df690f6ffffff", "res": 7, "alerta": "AMARILLO", "pct_rojo": 0.0, "horas_br": 1, "p_ign": 0.456}}, {"type": "Feature", "geometry": {"type": "Polygon", "coordinates": [[[-70.6873224362559, -52.59943868170577], [-70.68098565337975, -52.58758007692753], [-70.69311866507658, -52.57795885735127], [-70.71158991246189, -52.58019336166434], [-70.7179358521491, -52.592051901230256], [-70.70580138952691, -52.601676002333974], [-70.6873224362559, -52.59943868170577]]]}, "properties": {"h3_id": "87df69150ffffff", "res": 7, "alerta": "AMARILLO", "pct_rojo": 0.0, "horas_br": 1, "p_ign": 0.456}}, {"type": "Feature", "geometry": {"type": "Polygon", "coordinates": [[[-70.65670802800882, -52.606815321099994], [-70.65038040615677, -52.59495665510773], [-70.66251848743275, -52.585340472547735], [-70.68098565337975, -52.58758007692753], [-70.6873224362559, -52.59943868170577], [-70.67518289404336, -52.60905774395706], [-70.65670802800882, -52.606815321099994]]]}, "properties": {"h3_id": "87df69152ffffff", "res": 7, "alerta": "AMARILLO", "pct_rojo": 0.0, "horas_br": 1, "p_ign": 0.456}}, {"type": "Feature", "geometry": {"type": "Polygon", "coordinates": [[[-70.2739263673616, -52.23832687045349], [-70.26777849084125, -52.22648341450986], [-70.27985198886229, -52.216903135685506], [-70.29807491820243, -52.21916345421697], [-70.30423181571125, -52.23100689652895], [-70.29215676465988, -52.240590034576094], [-70.2739263673616, -52.23832687045349]]]}, "properties": {"h3_id": "87df692aaffffff", "res": 7, "alerta": "AMARILLO", "pct_rojo": 0.0, "horas_br": 1, "p_ign": 0.456}}, {"type": "Feature", "geometry": {"type": "Polygon", "coordinates": [[[-70.06898403667304, -52.866135913728215], [-70.06281605017328, -52.85427302161401], [-70.07508390475607, -52.84476103105654], [-70.09352140950854, -52.84710909033601], [-70.099698685987, -52.85897199838029], [-70.08742916954303, -52.868486831860885], [-70.06898403667304, -52.866135913728215]]]}, "properties": {"h3_id": "87df69400ffffff", "res": 7, "alerta": "AMARILLO", "pct_rojo": 0.0, "horas_br": 1, "p_ign": 0.428}}, {"type": "Feature", "geometry": {"type": "Polygon", "coordinates": [[[-70.06798782947342, -52.36759759330122], [-70.06189027734158, -52.355751323473804], [-70.07401880366723, -52.34620961031771], [-70.09224650851209, -52.34851132173775], [-70.09835314066162, -52.36035760522598], [-70.08622298969621, -52.36990216427109], [-70.06798782947342, -52.36759759330122]]]}, "properties": {"h3_id": "87df69675ffffff", "res": 7, "alerta": "AMARILLO", "pct_rojo": 0.0, "horas_br": 1, "p_ign": 0.456}}, {"type": "Feature", "geometry": {"type": "Polygon", "coordinates": [[[-70.25139799455246, -52.52359740305678], [-70.24521754208308, -52.51174424051299], [-70.25737191541737, -52.50218405867367], [-70.27570832324788, -52.50447418397492], [-70.28189791541807, -52.51632733738192], [-70.26974196185617, -52.52589037526395], [-70.25139799455246, -52.52359740305678]]]}, "properties": {"h3_id": "87df6972dffffff", "res": 7, "alerta": "AMARILLO", "pct_rojo": 0.0, "horas_br": 1, "p_ign": 0.456}}, {"type": "Feature", "geometry": {"type": "Polygon", "coordinates": [[[-69.2622417381312, -52.79343001944418], [-69.25635427862107, -52.781577376737495], [-69.26867643739868, -52.77218312656293], [-69.28688795963033, -52.77463872735513], [-69.29278469583132, -52.78649148973927], [-69.28046063476226, -52.795888532300474], [-69.2622417381312, -52.79343001944418]]]}, "properties": {"h3_id": "87df6ba95ffffff", "res": 7, "alerta": "AMARILLO", "pct_rojo": 0.0, "horas_br": 1, "p_ign": 0.428}}, {"type": "Feature", "geometry": {"type": "Polygon", "coordinates": [[[-69.33613496093047, -52.73702681378208], [-69.33023046467181, -52.725175223170105], [-69.34252992105738, -52.71576631979921], [-69.36073575048177, -52.718206210160204], [-69.36664949808169, -52.730057910653755], [-69.35434816657545, -52.739469611550376], [-69.33613496093047, -52.73702681378208]]]}, "properties": {"h3_id": "87df6baaaffffff", "res": 7, "alerta": "AMARILLO", "pct_rojo": 0.0, "horas_br": 1, "p_ign": 0.428}}]}